{
"type": "FeatureCollection",
"name": "pnms",
"crs": { "type": "name", "properties": { "name": "urn:ogc:def:crs:OGC:1.3:CRS84" } },
"features": [
{ "type": "Feature", "properties": { "sanctuary": "Papahānaumokuākea", "nms": "PNMS" }, "geometry": { "type": "MultiPolygon", "coordinates": [ [ [ [ -172.182686, 29.104607 ], [ -172.182026, 29.104679 ], [ -172.163146, 29.106665 ], [ -172.144254, 29.108566 ], [ -172.12535, 29.110381 ], [ -172.106436, 29.112111 ], [ -172.087512, 29.113755 ], [ -172.068578, 29.115314 ], [ -172.049634, 29.116786 ], [ -172.030682, 29.118173 ], [ -172.011722, 29.119475 ], [ -171.992755, 29.12069 ], [ -171.97378, 29.12182 ], [ -171.954799, 29.122864 ], [ -171.935811, 29.123821 ], [ -171.916819, 29.124693 ], [ -171.897821, 29.125479 ], [ -171.878818, 29.126179 ], [ -171.859812, 29.126793 ], [ -171.840802, 29.127321 ], [ -171.821789, 29.127763 ], [ -171.802774, 29.128119 ], [ -171.783757, 29.128389 ], [ -171.764739, 29.128573 ], [ -171.745719, 29.128671 ], [ -171.733603, 29.128689 ], [ -171.714583, 29.128646 ], [ -171.695564, 29.128516 ], [ -171.676546, 29.128301 ], [ -171.657529, 29.128 ], [ -171.638515, 29.127613 ], [ -171.619503, 29.12714 ], [ -171.600495, 29.12658 ], [ -171.58149, 29.125935 ], [ -171.562489, 29.125204 ], [ -171.543493, 29.124387 ], [ -171.524502, 29.123484 ], [ -171.505517, 29.122495 ], [ -171.486538, 29.12142 ], [ -171.48345, 29.121237 ], [ -171.478254, 29.120934 ], [ -171.459282, 29.119773 ], [ -171.440317, 29.118526 ], [ -171.42136, 29.117194 ], [ -171.402412, 29.115776 ], [ -171.383472, 29.114272 ], [ -171.364541, 29.112683 ], [ -171.345621, 29.111007 ], [ -171.32671, 29.109247 ], [ -171.307811, 29.1074 ], [ -171.288923, 29.105469 ], [ -171.270047, 29.103451 ], [ -171.251184, 29.101349 ], [ -171.232333, 29.099161 ], [ -171.213496, 29.096888 ], [ -171.194673, 29.094529 ], [ -171.19175, 29.094155 ], [ -171.17551, 29.092041 ], [ -171.156716, 29.089512 ], [ -171.137939, 29.086898 ], [ -171.119177, 29.0842 ], [ -171.100431, 29.081417 ], [ -171.081703, 29.078549 ], [ -171.062992, 29.075596 ], [ -171.0443, 29.072558 ], [ -171.025626, 29.069437 ], [ -171.006971, 29.06623 ], [ -170.988336, 29.062939 ], [ -170.969721, 29.059565 ], [ -170.951127, 29.056105 ], [ -170.932553, 29.052562 ], [ -170.914002, 29.048935 ], [ -170.895472, 29.045224 ], [ -170.876965, 29.041429 ], [ -170.858482, 29.03755 ], [ -170.840022, 29.033588 ], [ -170.821586, 29.029543 ], [ -170.803175, 29.025414 ], [ -170.784789, 29.021202 ], [ -170.766428, 29.016906 ], [ -170.748094, 29.012528 ], [ -170.729787, 29.008067 ], [ -170.711506, 29.003523 ], [ -170.693254, 28.998896 ], [ -170.675029, 28.994187 ], [ -170.656833, 28.989396 ], [ -170.638667, 28.984522 ], [ -170.620529, 28.979566 ], [ -170.602422, 28.974528 ], [ -170.584346, 28.969408 ], [ -170.5663, 28.964207 ], [ -170.548287, 28.958924 ], [ -170.530305, 28.953559 ], [ -170.512356, 28.948114 ], [ -170.494439, 28.942587 ], [ -170.476557, 28.936979 ], [ -170.458708, 28.931291 ], [ -170.440894, 28.925521 ], [ -170.423114, 28.919672 ], [ -170.405371, 28.913741 ], [ -170.387663, 28.907731 ], [ -170.369991, 28.901641 ], [ -170.352356, 28.895471 ], [ -170.334759, 28.889221 ], [ -170.317199, 28.882891 ], [ -170.299678, 28.876482 ], [ -170.282195, 28.869995 ], [ -170.264752, 28.863428 ], [ -170.247348, 28.856782 ], [ -170.229984, 28.850057 ], [ -170.212661, 28.843255 ], [ -170.195379, 28.836374 ], [ -170.178139, 28.829414 ], [ -170.164412, 28.823798 ], [ -170.15627, 28.822888 ], [ -170.13747, 28.820701 ], [ -170.118683, 28.818429 ], [ -170.09991, 28.816071 ], [ -170.081152, 28.813628 ], [ -170.062408, 28.811101 ], [ -170.04368, 28.808488 ], [ -170.024969, 28.80579 ], [ -170.006273, 28.803008 ], [ -169.987595, 28.800141 ], [ -169.968934, 28.797189 ], [ -169.950291, 28.794152 ], [ -169.931666, 28.791031 ], [ -169.913061, 28.787826 ], [ -169.894476, 28.784536 ], [ -169.87591, 28.781162 ], [ -169.857365, 28.777704 ], [ -169.838841, 28.774162 ], [ -169.820338, 28.770536 ], [ -169.801858, 28.766826 ], [ -169.7834, 28.763032 ], [ -169.764965, 28.759155 ], [ -169.746554, 28.755194 ], [ -169.728167, 28.75115 ], [ -169.709804, 28.747022 ], [ -169.691467, 28.742811 ], [ -169.673155, 28.738517 ], [ -169.654869, 28.73414 ], [ -169.63661, 28.72968 ], [ -169.618378, 28.725138 ], [ -169.600173, 28.720512 ], [ -169.581997, 28.715805 ], [ -169.563848, 28.711015 ], [ -169.545729, 28.706142 ], [ -169.52764, 28.701188 ], [ -169.50958, 28.696152 ], [ -169.491551, 28.691033 ], [ -169.473553, 28.685834 ], [ -169.455586, 28.680552 ], [ -169.437652, 28.675189 ], [ -169.419749, 28.669745 ], [ -169.40188, 28.66422 ], [ -169.384044, 28.658614 ], [ -169.366242, 28.652927 ], [ -169.348474, 28.647159 ], [ -169.330741, 28.641311 ], [ -169.313043, 28.635383 ], [ -169.295382, 28.629374 ], [ -169.277756, 28.623286 ], [ -169.260167, 28.617117 ], [ -169.242615, 28.610869 ], [ -169.225101, 28.604542 ], [ -169.207625, 28.598135 ], [ -169.190188, 28.591649 ], [ -169.172789, 28.585084 ], [ -169.155431, 28.57844 ], [ -169.138112, 28.571717 ], [ -169.120833, 28.564916 ], [ -169.103596, 28.558037 ], [ -169.0864, 28.55108 ], [ -169.069245, 28.544045 ], [ -169.052133, 28.536932 ], [ -169.035064, 28.529742 ], [ -169.018038, 28.522474 ], [ -169.001055, 28.51513 ], [ -168.984117, 28.507708 ], [ -168.967223, 28.50021 ], [ -168.950374, 28.492635 ], [ -168.933571, 28.484984 ], [ -168.916813, 28.477257 ], [ -168.900102, 28.469454 ], [ -168.883437, 28.461575 ], [ -168.86682, 28.453621 ], [ -168.850251, 28.445591 ], [ -168.833729, 28.437487 ], [ -168.817256, 28.429308 ], [ -168.800832, 28.421054 ], [ -168.784457, 28.412726 ], [ -168.768132, 28.404324 ], [ -168.751857, 28.395848 ], [ -168.735633, 28.387298 ], [ -168.71946, 28.378674 ], [ -168.703338, 28.369978 ], [ -168.687269, 28.361209 ], [ -168.671251, 28.352366 ], [ -168.655287, 28.343452 ], [ -168.639375, 28.334465 ], [ -168.623518, 28.325406 ], [ -168.607714, 28.316275 ], [ -168.591965, 28.307073 ], [ -168.583437, 28.302034 ], [ -168.576327, 28.303051 ], [ -168.557683, 28.305632 ], [ -168.539023, 28.308127 ], [ -168.520349, 28.310538 ], [ -168.50166, 28.312863 ], [ -168.482958, 28.315103 ], [ -168.464243, 28.317258 ], [ -168.445515, 28.319328 ], [ -168.426774, 28.321312 ], [ -168.408023, 28.323211 ], [ -168.38926, 28.325025 ], [ -168.370486, 28.326753 ], [ -168.351703, 28.328396 ], [ -168.332909, 28.329953 ], [ -168.314107, 28.331424 ], [ -168.295296, 28.33281 ], [ -168.276477, 28.33411 ], [ -168.257651, 28.335325 ], [ -168.238817, 28.336453 ], [ -168.219977, 28.337496 ], [ -168.201131, 28.338453 ], [ -168.18228, 28.339324 ], [ -168.163423, 28.34011 ], [ -168.144562, 28.340809 ], [ -168.125697, 28.341423 ], [ -168.106829, 28.34195 ], [ -168.087958, 28.342392 ], [ -168.069084, 28.342747 ], [ -168.050209, 28.343017 ], [ -168.031332, 28.343201 ], [ -168.012455, 28.343299 ], [ -168.000428, 28.343316 ], [ -167.98155, 28.343273 ], [ -167.962673, 28.343144 ], [ -167.943797, 28.342929 ], [ -167.924922, 28.342628 ], [ -167.906049, 28.342241 ], [ -167.887179, 28.341769 ], [ -167.868312, 28.34121 ], [ -167.849448, 28.340565 ], [ -167.830589, 28.339835 ], [ -167.811734, 28.339018 ], [ -167.792885, 28.338116 ], [ -167.774041, 28.337128 ], [ -167.763046, 28.336511 ], [ -167.755042, 28.336044 ], [ -167.736211, 28.334885 ], [ -167.717387, 28.333639 ], [ -167.698571, 28.332308 ], [ -167.679763, 28.330891 ], [ -167.660964, 28.329389 ], [ -167.642174, 28.3278 ], [ -167.623394, 28.326127 ], [ -167.604625, 28.324367 ], [ -167.585866, 28.322523 ], [ -167.567118, 28.320593 ], [ -167.548382, 28.318577 ], [ -167.529659, 28.316477 ], [ -167.510948, 28.314291 ], [ -167.492251, 28.312019 ], [ -167.473567, 28.309663 ], [ -167.454898, 28.307222 ], [ -167.436244, 28.304696 ], [ -167.417605, 28.302084 ], [ -167.398982, 28.299388 ], [ -167.380375, 28.296607 ], [ -167.361786, 28.293742 ], [ -167.343214, 28.290792 ], [ -167.324659, 28.287757 ], [ -167.306123, 28.284638 ], [ -167.287606, 28.281434 ], [ -167.269109, 28.278146 ], [ -167.250631, 28.274774 ], [ -167.232174, 28.271318 ], [ -167.213738, 28.267778 ], [ -167.195323, 28.264154 ], [ -167.17693, 28.260446 ], [ -167.158559, 28.256654 ], [ -167.140212, 28.252779 ], [ -167.121888, 28.24882 ], [ -167.103587, 28.244778 ], [ -167.085312, 28.240653 ], [ -167.067061, 28.236444 ], [ -167.048835, 28.232152 ], [ -167.030636, 28.227778 ], [ -167.012462, 28.22332 ], [ -166.994316, 28.21878 ], [ -166.976197, 28.214158 ], [ -166.958106, 28.209452 ], [ -166.940043, 28.204665 ], [ -166.922009, 28.199795 ], [ -166.904004, 28.194844 ], [ -166.886029, 28.18981 ], [ -166.868085, 28.184694 ], [ -166.850171, 28.179497 ], [ -166.832288, 28.174219 ], [ -166.814438, 28.168859 ], [ -166.796619, 28.163418 ], [ -166.792687, 28.162205 ], [ -166.777765, 28.157566 ], [ -166.760012, 28.151962 ], [ -166.742293, 28.146279 ], [ -166.724608, 28.140514 ], [ -166.706958, 28.134669 ], [ -166.689343, 28.128744 ], [ -166.671763, 28.122738 ], [ -166.654219, 28.116653 ], [ -166.636712, 28.110488 ], [ -166.619242, 28.104243 ], [ -166.601809, 28.097919 ], [ -166.584414, 28.091515 ], [ -166.567057, 28.085032 ], [ -166.549739, 28.078471 ], [ -166.53246, 28.07183 ], [ -166.515222, 28.065111 ], [ -166.498023, 28.058314 ], [ -166.480865, 28.051438 ], [ -166.463748, 28.044485 ], [ -166.446672, 28.037453 ], [ -166.429639, 28.030344 ], [ -166.412648, 28.023157 ], [ -166.3957, 28.015893 ], [ -166.378795, 28.008552 ], [ -166.361934, 28.001134 ], [ -166.345118, 27.99364 ], [ -166.328346, 27.986069 ], [ -166.311619, 27.978422 ], [ -166.294938, 27.970698 ], [ -166.278303, 27.962899 ], [ -166.261714, 27.955024 ], [ -166.245172, 27.947074 ], [ -166.228677, 27.939049 ], [ -166.212231, 27.930948 ], [ -166.195832, 27.922773 ], [ -166.179482, 27.914523 ], [ -166.163181, 27.906199 ], [ -166.14693, 27.897801 ], [ -166.130728, 27.889329 ], [ -166.114577, 27.880783 ], [ -166.106817, 27.876641 ], [ -166.098262, 27.872049 ], [ -166.082213, 27.863357 ], [ -166.066216, 27.854592 ], [ -166.05027, 27.845754 ], [ -166.034377, 27.836843 ], [ -166.018536, 27.82786 ], [ -166.002749, 27.818806 ], [ -165.987016, 27.809679 ], [ -165.971337, 27.800481 ], [ -165.955712, 27.791212 ], [ -165.940142, 27.781872 ], [ -165.924627, 27.772461 ], [ -165.909168, 27.762979 ], [ -165.893765, 27.753427 ], [ -165.878418, 27.743806 ], [ -165.863129, 27.734114 ], [ -165.862884, 27.733958 ], [ -165.847688, 27.72422 ], [ -165.832513, 27.71439 ], [ -165.817397, 27.704491 ], [ -165.802338, 27.694523 ], [ -165.787339, 27.684487 ], [ -165.772399, 27.674382 ], [ -165.757519, 27.66421 ], [ -165.755876, 27.66308 ], [ -165.742425, 27.653782 ], [ -165.727665, 27.643475 ], [ -165.712965, 27.633101 ], [ -165.698327, 27.62266 ], [ -165.68375, 27.612152 ], [ -165.669235, 27.601578 ], [ -165.654783, 27.590939 ], [ -165.640392, 27.580233 ], [ -165.626065, 27.569463 ], [ -165.611801, 27.558627 ], [ -165.597601, 27.547726 ], [ -165.583465, 27.536761 ], [ -165.569393, 27.525732 ], [ -165.555386, 27.514638 ], [ -165.541444, 27.503482 ], [ -165.527567, 27.492262 ], [ -165.513757, 27.480978 ], [ -165.500012, 27.469632 ], [ -165.486334, 27.458224 ], [ -165.472722, 27.446754 ], [ -165.459178, 27.435222 ], [ -165.445702, 27.423628 ], [ -165.432293, 27.411973 ], [ -165.418952, 27.400257 ], [ -165.40568, 27.388481 ], [ -165.392477, 27.376644 ], [ -165.379343, 27.364748 ], [ -165.366278, 27.352791 ], [ -165.353283, 27.340776 ], [ -165.340359, 27.328701 ], [ -165.327504, 27.316568 ], [ -165.314721, 27.304377 ], [ -165.302008, 27.292127 ], [ -165.289367, 27.27982 ], [ -165.276798, 27.267455 ], [ -165.264301, 27.255034 ], [ -165.251876, 27.242555 ], [ -165.239523, 27.230021 ], [ -165.227244, 27.21743 ], [ -165.215038, 27.204783 ], [ -165.202905, 27.192081 ], [ -165.190846, 27.179324 ], [ -165.178861, 27.166512 ], [ -165.16695, 27.153646 ], [ -165.155115, 27.140726 ], [ -165.143354, 27.127752 ], [ -165.131668, 27.114725 ], [ -165.120058, 27.101645 ], [ -165.108524, 27.088512 ], [ -165.097066, 27.075327 ], [ -165.085684, 27.06209 ], [ -165.077321, 27.05226 ], [ -165.066634, 27.049077 ], [ -165.048962, 27.043724 ], [ -165.031322, 27.038289 ], [ -165.013714, 27.032773 ], [ -164.996139, 27.027176 ], [ -164.978596, 27.021499 ], [ -164.961088, 27.015741 ], [ -164.943613, 27.009903 ], [ -164.926173, 27.003985 ], [ -164.908769, 26.997986 ], [ -164.891399, 26.991908 ], [ -164.874066, 26.98575 ], [ -164.856769, 26.979512 ], [ -164.839509, 26.973195 ], [ -164.836896, 26.97223 ], [ -164.822012, 26.966698 ], [ -164.804828, 26.960222 ], [ -164.787681, 26.953668 ], [ -164.774467, 26.948553 ], [ -164.769402, 26.94658 ], [ -164.761599, 26.943523 ], [ -164.756187, 26.941503 ], [ -164.739006, 26.935028 ], [ -164.721863, 26.928474 ], [ -164.707004, 26.922712 ], [ -164.701629, 26.92272 ], [ -164.682993, 26.922677 ], [ -164.664358, 26.922548 ], [ -164.645724, 26.922333 ], [ -164.627091, 26.922033 ], [ -164.60846, 26.921647 ], [ -164.589832, 26.921175 ], [ -164.571207, 26.920617 ], [ -164.552586, 26.919973 ], [ -164.533968, 26.919244 ], [ -164.515355, 26.918428 ], [ -164.496747, 26.917528 ], [ -164.478145, 26.916541 ], [ -164.459549, 26.915469 ], [ -164.440959, 26.914311 ], [ -164.422377, 26.913067 ], [ -164.403802, 26.911738 ], [ -164.385235, 26.910323 ], [ -164.366676, 26.908823 ], [ -164.348127, 26.907238 ], [ -164.329588, 26.905566 ], [ -164.311058, 26.90381 ], [ -164.292539, 26.901968 ], [ -164.274031, 26.900041 ], [ -164.255535, 26.898029 ], [ -164.237051, 26.895931 ], [ -164.21858, 26.893749 ], [ -164.200121, 26.891481 ], [ -164.181677, 26.889129 ], [ -164.163246, 26.886691 ], [ -164.14483, 26.884169 ], [ -164.126429, 26.881562 ], [ -164.108044, 26.87887 ], [ -164.089674, 26.876093 ], [ -164.071322, 26.873232 ], [ -164.052986, 26.870286 ], [ -164.034668, 26.867256 ], [ -164.016368, 26.864142 ], [ -163.998087, 26.860943 ], [ -163.979825, 26.85766 ], [ -163.961582, 26.854294 ], [ -163.94336, 26.850843 ], [ -163.925158, 26.847308 ], [ -163.906977, 26.843689 ], [ -163.888818, 26.839987 ], [ -163.87068, 26.836201 ], [ -163.852565, 26.832332 ], [ -163.834473, 26.828379 ], [ -163.816405, 26.824343 ], [ -163.798361, 26.820224 ], [ -163.780341, 26.816022 ], [ -163.762346, 26.811737 ], [ -163.744376, 26.807369 ], [ -163.726433, 26.802918 ], [ -163.708515, 26.798385 ], [ -163.690625, 26.793769 ], [ -163.672762, 26.789071 ], [ -163.654927, 26.784291 ], [ -163.63712, 26.779428 ], [ -163.619342, 26.774484 ], [ -163.601593, 26.769458 ], [ -163.583874, 26.76435 ], [ -163.566186, 26.759161 ], [ -163.548527, 26.75389 ], [ -163.530901, 26.748538 ], [ -163.513305, 26.743105 ], [ -163.495742, 26.737591 ], [ -163.478212, 26.731996 ], [ -163.460714, 26.72632 ], [ -163.44325, 26.720564 ], [ -163.42582, 26.714728 ], [ -163.408425, 26.708811 ], [ -163.391064, 26.702814 ], [ -163.373739, 26.696738 ], [ -163.356449, 26.690581 ], [ -163.339196, 26.684346 ], [ -163.32198, 26.67803 ], [ -163.304801, 26.671636 ], [ -163.287659, 26.665163 ], [ -163.270556, 26.65861 ], [ -163.253491, 26.651979 ], [ -163.236465, 26.64527 ], [ -163.219479, 26.638482 ], [ -163.202533, 26.631616 ], [ -163.185627, 26.624672 ], [ -163.168762, 26.617651 ], [ -163.151938, 26.610551 ], [ -163.135156, 26.603375 ], [ -163.118416, 26.596121 ], [ -163.101719, 26.58879 ], [ -163.085064, 26.581383 ], [ -163.068454, 26.573898 ], [ -163.051887, 26.566338 ], [ -163.035364, 26.558701 ], [ -163.018887, 26.550988 ], [ -163.002454, 26.5432 ], [ -163.000002, 26.542023 ], [ -163.000002, 24.120689 ], [ -161.74242, 23.88042 ], [ -161.68679, 23.86839 ], [ -161.6321, 23.85316 ], [ -161.57857, 23.83478 ], [ -161.52642, 23.81332 ], [ -161.47586, 23.78888 ], [ -161.42708, 23.76155 ], [ -161.38029, 23.73144 ], [ -161.33566, 23.69868 ], [ -161.29337, 23.66338 ], [ -161.2536, 23.6257 ], [ -161.2165, 23.58578 ], [ -161.18221, 23.54379 ], [ -161.15087, 23.49989 ], [ -161.1226, 23.45425 ], [ -161.09751, 23.40707 ], [ -161.07569, 23.35851 ], [ -161.05724, 23.30879 ], [ -161.04221, 23.25809 ], [ -161.03067, 23.20662 ], [ -161.02266, 23.15458 ], [ -161.0182, 23.10217 ], [ -161.0173, 23.04961 ], [ -161.01998, 22.99711 ], [ -161.0262, 22.94485 ], [ -161.03595, 22.89307 ], [ -161.04919, 22.84195 ], [ -161.06584, 22.7917 ], [ -161.08586, 22.74252 ], [ -161.10915, 22.6946 ], [ -161.13562, 22.64812 ], [ -161.16516, 22.60327 ], [ -161.19766, 22.56023 ], [ -161.23298, 22.51916 ], [ -161.27099, 22.48022 ], [ -161.31153, 22.44356 ], [ -161.35444, 22.40934 ], [ -161.39956, 22.37767 ], [ -161.44671, 22.34869 ], [ -161.49571, 22.3225 ], [ -161.54635, 22.29922 ], [ -161.59846, 22.27892 ], [ -161.65181, 22.26168 ], [ -161.70621, 22.24758 ], [ -161.76145, 22.23667 ], [ -161.8173, 22.22899 ], [ -161.87356, 22.22458 ], [ -161.93, 22.22343 ], [ -161.98641, 22.22557 ], [ -162.04257, 22.23099 ], [ -162.09098, 22.23852 ], [ -162.09826, 22.23966 ], [ -163.000003, 22.413082 ], [ -163.000003, 19.234583 ], [ -163.004094, 19.238246 ], [ -163.016844, 19.249776 ], [ -163.029536, 19.261366 ], [ -163.042168, 19.273014 ], [ -163.05474, 19.284722 ], [ -163.067253, 19.296488 ], [ -163.079705, 19.308312 ], [ -163.092097, 19.320194 ], [ -163.104428, 19.332134 ], [ -163.116698, 19.344132 ], [ -163.128906, 19.356186 ], [ -163.141053, 19.368298 ], [ -163.153137, 19.380466 ], [ -163.16516, 19.39269 ], [ -163.177119, 19.40497 ], [ -163.189016, 19.417306 ], [ -163.200849, 19.429698 ], [ -163.212619, 19.442144 ], [ -163.224325, 19.454646 ], [ -163.235967, 19.467201 ], [ -163.247544, 19.479811 ], [ -163.259057, 19.492475 ], [ -163.270504, 19.505193 ], [ -163.281887, 19.517964 ], [ -163.293204, 19.530787 ], [ -163.304455, 19.543664 ], [ -163.315639, 19.556593 ], [ -163.326758, 19.569574 ], [ -163.337809, 19.582606 ], [ -163.348794, 19.59569 ], [ -163.359711, 19.608826 ], [ -163.370561, 19.622012 ], [ -163.381343, 19.635248 ], [ -163.392057, 19.648535 ], [ -163.402703, 19.661871 ], [ -163.413279, 19.675257 ], [ -163.423787, 19.688693 ], [ -163.434226, 19.702177 ], [ -163.444595, 19.715709 ], [ -163.454895, 19.72929 ], [ -163.458621, 19.734238 ], [ -163.466622, 19.744909 ], [ -163.476781, 19.758586 ], [ -163.486871, 19.772309 ], [ -163.496889, 19.78608 ], [ -163.506836, 19.799897 ], [ -163.516712, 19.81376 ], [ -163.526516, 19.82767 ], [ -163.536249, 19.841625 ], [ -163.54591, 19.855625 ], [ -163.555498, 19.86967 ], [ -163.565014, 19.88376 ], [ -163.574457, 19.897893 ], [ -163.583827, 19.912071 ], [ -163.593124, 19.926293 ], [ -163.602347, 19.940557 ], [ -163.611496, 19.954864 ], [ -163.620572, 19.969214 ], [ -163.629573, 19.983606 ], [ -163.6385, 19.99804 ], [ -163.647352, 20.012516 ], [ -163.656129, 20.027032 ], [ -163.664831, 20.04159 ], [ -163.673457, 20.056187 ], [ -163.682008, 20.070825 ], [ -163.690483, 20.085503 ], [ -163.698882, 20.10022 ], [ -163.707205, 20.114975 ], [ -163.715451, 20.12977 ], [ -163.723621, 20.144603 ], [ -163.731713, 20.159473 ], [ -163.738407, 20.171925 ], [ -163.74135, 20.173531 ], [ -163.756636, 20.181972 ], [ -163.771878, 20.190483 ], [ -163.787077, 20.199064 ], [ -163.802232, 20.207716 ], [ -163.817343, 20.216437 ], [ -163.832409, 20.225228 ], [ -163.84743, 20.234089 ], [ -163.862406, 20.24302 ], [ -163.877336, 20.252019 ], [ -163.89222, 20.261088 ], [ -163.907058, 20.270225 ], [ -163.921848, 20.27943 ], [ -163.936592, 20.288704 ], [ -163.951288, 20.298046 ], [ -163.955877, 20.300994 ], [ -163.967981, 20.298628 ], [ -163.985351, 20.295316 ], [ -164.002737, 20.292084 ], [ -164.02014, 20.288933 ], [ -164.037558, 20.285861 ], [ -164.054992, 20.28287 ], [ -164.072441, 20.27996 ], [ -164.089904, 20.27713 ], [ -164.107381, 20.27438 ], [ -164.124872, 20.271711 ], [ -164.142377, 20.269123 ], [ -164.159894, 20.266615 ], [ -164.177424, 20.264189 ], [ -164.194966, 20.261843 ], [ -164.21252, 20.259578 ], [ -164.230084, 20.257394 ], [ -164.24766, 20.255291 ], [ -164.265246, 20.253269 ], [ -164.282842, 20.251328 ], [ -164.300448, 20.249468 ], [ -164.318063, 20.247689 ], [ -164.335687, 20.245992 ], [ -164.353319, 20.244376 ], [ -164.370959, 20.242841 ], [ -164.388607, 20.241388 ], [ -164.406262, 20.240016 ], [ -164.423924, 20.238725 ], [ -164.441592, 20.237516 ], [ -164.459266, 20.236388 ], [ -164.476945, 20.235342 ], [ -164.494629, 20.234377 ], [ -164.512319, 20.233494 ], [ -164.530012, 20.232693 ], [ -164.547709, 20.231973 ], [ -164.56541, 20.231334 ], [ -164.581062, 20.230838 ], [ -164.587643, 20.230641 ], [ -164.601696, 20.230257 ], [ -164.605706, 20.230156 ], [ -164.623414, 20.229763 ], [ -164.641125, 20.229451 ], [ -164.658836, 20.229221 ], [ -164.676549, 20.229072 ], [ -164.694262, 20.229005 ], [ -164.700565, 20.229001 ], [ -164.712174, 20.22902 ], [ -164.729887, 20.229117 ], [ -164.747599, 20.229295 ], [ -164.76531, 20.229555 ], [ -164.78302, 20.229896 ], [ -164.800728, 20.230319 ], [ -164.818433, 20.230824 ], [ -164.836136, 20.23141 ], [ -164.853835, 20.232078 ], [ -164.871531, 20.232828 ], [ -164.889223, 20.233659 ], [ -164.906911, 20.234572 ], [ -164.924593, 20.235566 ], [ -164.942271, 20.236642 ], [ -164.959943, 20.237799 ], [ -164.977608, 20.239038 ], [ -164.995268, 20.240358 ], [ -165.01292, 20.24176 ], [ -165.030565, 20.243243 ], [ -165.035119, 20.243639 ], [ -165.049144, 20.244889 ], [ -165.066773, 20.246535 ], [ -165.084394, 20.248261 ], [ -165.102005, 20.25007 ], [ -165.119608, 20.251959 ], [ -165.1372, 20.253929 ], [ -165.154783, 20.25598 ], [ -165.172355, 20.258113 ], [ -165.189915, 20.260326 ], [ -165.207465, 20.262621 ], [ -165.225002, 20.264996 ], [ -165.242528, 20.267452 ], [ -165.26004, 20.269989 ], [ -165.27754, 20.272607 ], [ -165.295026, 20.275305 ], [ -165.312498, 20.278083 ], [ -165.329956, 20.280943 ], [ -165.3474, 20.283883 ], [ -165.364828, 20.286903 ], [ -165.382241, 20.290003 ], [ -165.399637, 20.293184 ], [ -165.417018, 20.296445 ], [ -165.434382, 20.299786 ], [ -165.451728, 20.303207 ], [ -165.469057, 20.306708 ], [ -165.486369, 20.310288 ], [ -165.491967, 20.311464 ], [ -165.504009, 20.314022 ], [ -165.521283, 20.317762 ], [ -165.538537, 20.321582 ], [ -165.547979, 20.323718 ], [ -165.548666, 20.323613 ], [ -165.566176, 20.321025 ], [ -165.583699, 20.318517 ], [ -165.601235, 20.316091 ], [ -165.618783, 20.313745 ], [ -165.636342, 20.31148 ], [ -165.653913, 20.309296 ], [ -165.671494, 20.307193 ], [ -165.689087, 20.305172 ], [ -165.706689, 20.303231 ], [ -165.7243, 20.301371 ], [ -165.741921, 20.299593 ], [ -165.759551, 20.297895 ], [ -165.777189, 20.296279 ], [ -165.794835, 20.294745 ], [ -165.812489, 20.293292 ], [ -165.830149, 20.29192 ], [ -165.847817, 20.290629 ], [ -165.865491, 20.28942 ], [ -165.88317, 20.288292 ], [ -165.900856, 20.287246 ], [ -165.918546, 20.286282 ], [ -165.936241, 20.285399 ], [ -165.953941, 20.284597 ], [ -165.971644, 20.283877 ], [ -165.98935, 20.283239 ], [ -166.00706, 20.282682 ], [ -166.024772, 20.282207 ], [ -166.042487, 20.281814 ], [ -166.060203, 20.281502 ], [ -166.07792, 20.281272 ], [ -166.095639, 20.281123 ], [ -166.113358, 20.281056 ], [ -166.131077, 20.281071 ], [ -166.148796, 20.281168 ], [ -166.166514, 20.281346 ], [ -166.184232, 20.281605 ], [ -166.201947, 20.281947 ], [ -166.219661, 20.28237 ], [ -166.237372, 20.282875 ], [ -166.255081, 20.283461 ], [ -166.272786, 20.284129 ], [ -166.290488, 20.284879 ], [ -166.308186, 20.28571 ], [ -166.325879, 20.286622 ], [ -166.343568, 20.287617 ], [ -166.361251, 20.288692 ], [ -166.364782, 20.288917 ], [ -166.379149, 20.289863 ], [ -166.39682, 20.291102 ], [ -166.414485, 20.292422 ], [ -166.432144, 20.293824 ], [ -166.449795, 20.295306 ], [ -166.467438, 20.296871 ], [ -166.485073, 20.298516 ], [ -166.502699, 20.300243 ], [ -166.520317, 20.302051 ], [ -166.537925, 20.30394 ], [ -166.555524, 20.30591 ], [ -166.573112, 20.307961 ], [ -166.590259, 20.31004 ], [ -166.60041, 20.311282 ], [ -166.617977, 20.313495 ], [ -166.635533, 20.315789 ], [ -166.653076, 20.318164 ], [ -166.670607, 20.32062 ], [ -166.688126, 20.323157 ], [ -166.705632, 20.325774 ], [ -166.723124, 20.328472 ], [ -166.740602, 20.331251 ], [ -166.758066, 20.33411 ], [ -166.775516, 20.33705 ], [ -166.79295, 20.34007 ], [ -166.810368, 20.34317 ], [ -166.827771, 20.34635 ], [ -166.845158, 20.349611 ], [ -166.862527, 20.352952 ], [ -166.87988, 20.356372 ], [ -166.897215, 20.359873 ], [ -166.914532, 20.363454 ], [ -166.931831, 20.367114 ], [ -166.949111, 20.370854 ], [ -166.966372, 20.374673 ], [ -166.976376, 20.376925 ], [ -166.992668, 20.380612 ], [ -167.00989, 20.38459 ], [ -167.027091, 20.388648 ], [ -167.044271, 20.392785 ], [ -167.06143, 20.397001 ], [ -167.078568, 20.401296 ], [ -167.095683, 20.40567 ], [ -167.112777, 20.410122 ], [ -167.129847, 20.414654 ], [ -167.146894, 20.419264 ], [ -167.162981, 20.423692 ], [ -167.177304, 20.427571 ], [ -167.194328, 20.432259 ], [ -167.211329, 20.437026 ], [ -167.228305, 20.441871 ], [ -167.245256, 20.446795 ], [ -167.262182, 20.451796 ], [ -167.279083, 20.456875 ], [ -167.295957, 20.462033 ], [ -167.312806, 20.467267 ], [ -167.329627, 20.47258 ], [ -167.346421, 20.477969 ], [ -167.363188, 20.483436 ], [ -167.379927, 20.488981 ], [ -167.396637, 20.494602 ], [ -167.413319, 20.5003 ], [ -167.429971, 20.506075 ], [ -167.446594, 20.511927 ], [ -167.463187, 20.517855 ], [ -167.479749, 20.523859 ], [ -167.496281, 20.52994 ], [ -167.512782, 20.536097 ], [ -167.529251, 20.54233 ], [ -167.539879, 20.546398 ], [ -167.546954, 20.549125 ], [ -167.563359, 20.555509 ], [ -167.579732, 20.561968 ], [ -167.596071, 20.568504 ], [ -167.612377, 20.575114 ], [ -167.628649, 20.581799 ], [ -167.644887, 20.588559 ], [ -167.661091, 20.595394 ], [ -167.677259, 20.602303 ], [ -167.693392, 20.609287 ], [ -167.70949, 20.616345 ], [ -167.725551, 20.623477 ], [ -167.741575, 20.630683 ], [ -167.757563, 20.637963 ], [ -167.773514, 20.645316 ], [ -167.789427, 20.652743 ], [ -167.805301, 20.660243 ], [ -167.821138, 20.667816 ], [ -167.836936, 20.675462 ], [ -167.852694, 20.68318 ], [ -167.868413, 20.690971 ], [ -167.884092, 20.698834 ], [ -167.899731, 20.706769 ], [ -167.915329, 20.714777 ], [ -167.930886, 20.722855 ], [ -167.946402, 20.731006 ], [ -167.961876, 20.739228 ], [ -167.977308, 20.747521 ], [ -167.992697, 20.755885 ], [ -168.008043, 20.76432 ], [ -168.023346, 20.772825 ], [ -168.038606, 20.781401 ], [ -168.053822, 20.790047 ], [ -168.068993, 20.798763 ], [ -168.084119, 20.807548 ], [ -168.099201, 20.816403 ], [ -168.114237, 20.825328 ], [ -168.129227, 20.834322 ], [ -168.144171, 20.843384 ], [ -168.159069, 20.852515 ], [ -168.17392, 20.861715 ], [ -168.188723, 20.870983 ], [ -168.203479, 20.880319 ], [ -168.218187, 20.889723 ], [ -168.232847, 20.899195 ], [ -168.247458, 20.908734 ], [ -168.26202, 20.91834 ], [ -168.276533, 20.928013 ], [ -168.290996, 20.937752 ], [ -168.305409, 20.947559 ], [ -168.319771, 20.957431 ], [ -168.334083, 20.96737 ], [ -168.348344, 20.977374 ], [ -168.362553, 20.987443 ], [ -168.37671, 20.997578 ], [ -168.390816, 21.007779 ], [ -168.404869, 21.018043 ], [ -168.418869, 21.028373 ], [ -168.432815, 21.038767 ], [ -168.446709, 21.049225 ], [ -168.460548, 21.059746 ], [ -168.474334, 21.070331 ], [ -168.488065, 21.08098 ], [ -168.501741, 21.091692 ], [ -168.515362, 21.102466 ], [ -168.528927, 21.113303 ], [ -168.542436, 21.124203 ], [ -168.55589, 21.135164 ], [ -168.569287, 21.146187 ], [ -168.582627, 21.157272 ], [ -168.595909, 21.168418 ], [ -168.609135, 21.179625 ], [ -168.622302, 21.190893 ], [ -168.635412, 21.202221 ], [ -168.648463, 21.21361 ], [ -168.661455, 21.225058 ], [ -168.674388, 21.236566 ], [ -168.687262, 21.248134 ], [ -168.700076, 21.25976 ], [ -168.712829, 21.271445 ], [ -168.725523, 21.283189 ], [ -168.738156, 21.294991 ], [ -168.750728, 21.306852 ], [ -168.763238, 21.31877 ], [ -168.775687, 21.330745 ], [ -168.788074, 21.342777 ], [ -168.800399, 21.354867 ], [ -168.812661, 21.367012 ], [ -168.82486, 21.379215 ], [ -168.836996, 21.391473 ], [ -168.849069, 21.403787 ], [ -168.861078, 21.416156 ], [ -168.873023, 21.42858 ], [ -168.884903, 21.441059 ], [ -168.896719, 21.453593 ], [ -168.90847, 21.466181 ], [ -168.920156, 21.478822 ], [ -168.931776, 21.491518 ], [ -168.94333, 21.504267 ], [ -168.954818, 21.517068 ], [ -168.96624, 21.529923 ], [ -168.977595, 21.54283 ], [ -168.988883, 21.555788 ], [ -168.991775, 21.559129 ], [ -169.000524, 21.569284 ], [ -169.011677, 21.582346 ], [ -169.022762, 21.59546 ], [ -169.033779, 21.608624 ], [ -169.044728, 21.621838 ], [ -169.055608, 21.635103 ], [ -169.06642, 21.648418 ], [ -169.077162, 21.661782 ], [ -169.087834, 21.675196 ], [ -169.098436, 21.688658 ], [ -169.108969, 21.702169 ], [ -169.119431, 21.715728 ], [ -169.129823, 21.729336 ], [ -169.140144, 21.742991 ], [ -169.150393, 21.756693 ], [ -169.160572, 21.770442 ], [ -169.170678, 21.784238 ], [ -169.180713, 21.79808 ], [ -169.190675, 21.811968 ], [ -169.200565, 21.825902 ], [ -169.202325, 21.828397 ], [ -169.204925, 21.831741 ], [ -169.215399, 21.845299 ], [ -169.217029, 21.847431 ], [ -169.22196, 21.849047 ], [ -169.238827, 21.854659 ], [ -169.255665, 21.860347 ], [ -169.272474, 21.866112 ], [ -169.289253, 21.871954 ], [ -169.306002, 21.877873 ], [ -169.322721, 21.883867 ], [ -169.339409, 21.889938 ], [ -169.356065, 21.896084 ], [ -169.37269, 21.902307 ], [ -169.389283, 21.908605 ], [ -169.405844, 21.914978 ], [ -169.422371, 21.921427 ], [ -169.438866, 21.927952 ], [ -169.455327, 21.934551 ], [ -169.471754, 21.941225 ], [ -169.488146, 21.947974 ], [ -169.504504, 21.954798 ], [ -169.520826, 21.961696 ], [ -169.537113, 21.968668 ], [ -169.553365, 21.975715 ], [ -169.56958, 21.982836 ], [ -169.585758, 21.99003 ], [ -169.601899, 21.997298 ], [ -169.618002, 22.004639 ], [ -169.634068, 22.012054 ], [ -169.650096, 22.019542 ], [ -169.666085, 22.027102 ], [ -169.682035, 22.034736 ], [ -169.697946, 22.042442 ], [ -169.713817, 22.05022 ], [ -169.729648, 22.058071 ], [ -169.745438, 22.065994 ], [ -169.761188, 22.073988 ], [ -169.776896, 22.082055 ], [ -169.792563, 22.090192 ], [ -169.808187, 22.098401 ], [ -169.82377, 22.106681 ], [ -169.83931, 22.115032 ], [ -169.854806, 22.123454 ], [ -169.870259, 22.131946 ], [ -169.885669, 22.140508 ], [ -169.901034, 22.149141 ], [ -169.916354, 22.157843 ], [ -169.93163, 22.166615 ], [ -169.94686, 22.175457 ], [ -169.962045, 22.184368 ], [ -169.977184, 22.193348 ], [ -169.992276, 22.202396 ], [ -170.006528, 22.211033 ], [ -170.015799, 22.209553 ], [ -170.033507, 22.206811 ], [ -170.051229, 22.204149 ], [ -170.068964, 22.201567 ], [ -170.086712, 22.199066 ], [ -170.104473, 22.196645 ], [ -170.122245, 22.194305 ], [ -170.14003, 22.192045 ], [ -170.157826, 22.189867 ], [ -170.175632, 22.187769 ], [ -170.19345, 22.185752 ], [ -170.211277, 22.183816 ], [ -170.229114, 22.181961 ], [ -170.24696, 22.180187 ], [ -170.264815, 22.178494 ], [ -170.282679, 22.176882 ], [ -170.300551, 22.175351 ], [ -170.31843, 22.173901 ], [ -170.336316, 22.172533 ], [ -170.354209, 22.171246 ], [ -170.372109, 22.170039 ], [ -170.390015, 22.168915 ], [ -170.407926, 22.167871 ], [ -170.425842, 22.166909 ], [ -170.443763, 22.166028 ], [ -170.461688, 22.165228 ], [ -170.479617, 22.16451 ], [ -170.497549, 22.163873 ], [ -170.515485, 22.163318 ], [ -170.533423, 22.162844 ], [ -170.551363, 22.162452 ], [ -170.569306, 22.162141 ], [ -170.587249, 22.161911 ], [ -170.605194, 22.161763 ], [ -170.623139, 22.161696 ], [ -170.62947, 22.161692 ], [ -170.641346, 22.161711 ], [ -170.659291, 22.161807 ], [ -170.677236, 22.161985 ], [ -170.695179, 22.162244 ], [ -170.71312, 22.162585 ], [ -170.73106, 22.163007 ], [ -170.748997, 22.16351 ], [ -170.766932, 22.164095 ], [ -170.784863, 22.164761 ], [ -170.802791, 22.165509 ], [ -170.820714, 22.166338 ], [ -170.838634, 22.167249 ], [ -170.856548, 22.16824 ], [ -170.874457, 22.169313 ], [ -170.89236, 22.170468 ], [ -170.910258, 22.171703 ], [ -170.928148, 22.17302 ], [ -170.946032, 22.174418 ], [ -170.963909, 22.175897 ], [ -170.981778, 22.177458 ], [ -170.999638, 22.179099 ], [ -171.01749, 22.180822 ], [ -171.035333, 22.182625 ], [ -171.053167, 22.184509 ], [ -171.07099, 22.186475 ], [ -171.088804, 22.188521 ], [ -171.106607, 22.190648 ], [ -171.124399, 22.192856 ], [ -171.142179, 22.195145 ], [ -171.159947, 22.197514 ], [ -171.177703, 22.199964 ], [ -171.195447, 22.202494 ], [ -171.213177, 22.205105 ], [ -171.230893, 22.207797 ], [ -171.248596, 22.210569 ], [ -171.266284, 22.213421 ], [ -171.283958, 22.216353 ], [ -171.301616, 22.219366 ], [ -171.319259, 22.222459 ], [ -171.336886, 22.225631 ], [ -171.354496, 22.228884 ], [ -171.37209, 22.232217 ], [ -171.389666, 22.235629 ], [ -171.407225, 22.239121 ], [ -171.424765, 22.242693 ], [ -171.442287, 22.246345 ], [ -171.459791, 22.250076 ], [ -171.477274, 22.253886 ], [ -171.494739, 22.257776 ], [ -171.512183, 22.261744 ], [ -171.529607, 22.265792 ], [ -171.547009, 22.269919 ], [ -171.564391, 22.274125 ], [ -171.58175, 22.27841 ], [ -171.599088, 22.282774 ], [ -171.616403, 22.287216 ], [ -171.633695, 22.291736 ], [ -171.650964, 22.296336 ], [ -171.668209, 22.301013 ], [ -171.68543, 22.305769 ], [ -171.702626, 22.310602 ], [ -171.719798, 22.315514 ], [ -171.736944, 22.320504 ], [ -171.754064, 22.325571 ], [ -171.771158, 22.330716 ], [ -171.788226, 22.335939 ], [ -171.805266, 22.341238 ], [ -171.82228, 22.346616 ], [ -171.839265, 22.35207 ], [ -171.856223, 22.357601 ], [ -171.873151, 22.36321 ], [ -171.890051, 22.368895 ], [ -171.906922, 22.374656 ], [ -171.923763, 22.380494 ], [ -171.940574, 22.386409 ], [ -171.957354, 22.392399 ], [ -171.974103, 22.398466 ], [ -171.990821, 22.404609 ], [ -172.007507, 22.410827 ], [ -172.024162, 22.417121 ], [ -172.039982, 22.423184 ], [ -172.056521, 22.424474 ], [ -172.07443, 22.425953 ], [ -172.09233, 22.427513 ], [ -172.110223, 22.429153 ], [ -172.128107, 22.430875 ], [ -172.145982, 22.432678 ], [ -172.163847, 22.434562 ], [ -172.181702, 22.436527 ], [ -172.199548, 22.438572 ], [ -172.217383, 22.440699 ], [ -172.235206, 22.442906 ], [ -172.253018, 22.445194 ], [ -172.270818, 22.447562 ], [ -172.288606, 22.450011 ], [ -172.306381, 22.452541 ], [ -172.324143, 22.455151 ], [ -172.341892, 22.457842 ], [ -172.359626, 22.460613 ], [ -172.377346, 22.463464 ], [ -172.395051, 22.466395 ], [ -172.412742, 22.469407 ], [ -172.430416, 22.472499 ], [ -172.448074, 22.47567 ], [ -172.465716, 22.478922 ], [ -172.483341, 22.482254 ], [ -172.500949, 22.485665 ], [ -172.51854, 22.489156 ], [ -172.536112, 22.492727 ], [ -172.553665, 22.496377 ], [ -172.5712, 22.500107 ], [ -172.588716, 22.503916 ], [ -172.606211, 22.507804 ], [ -172.623687, 22.511772 ], [ -172.641142, 22.515818 ], [ -172.658576, 22.519944 ], [ -172.675989, 22.524148 ], [ -172.69338, 22.528432 ], [ -172.710749, 22.532794 ], [ -172.728096, 22.537235 ], [ -172.745419, 22.541754 ], [ -172.762719, 22.546352 ], [ -172.779996, 22.551027 ], [ -172.797248, 22.555782 ], [ -172.814476, 22.560614 ], [ -172.831678, 22.565524 ], [ -172.848856, 22.570512 ], [ -172.866007, 22.575578 ], [ -172.883132, 22.580721 ], [ -172.900231, 22.585942 ], [ -172.917303, 22.59124 ], [ -172.934347, 22.596616 ], [ -172.951364, 22.602068 ], [ -172.968353, 22.607598 ], [ -172.985313, 22.613204 ], [ -173.002244, 22.618887 ], [ -173.019145, 22.624647 ], [ -173.036017, 22.630483 ], [ -173.052859, 22.636396 ], [ -173.06967, 22.642385 ], [ -173.08645, 22.64845 ], [ -173.103199, 22.654591 ], [ -173.119916, 22.660807 ], [ -173.136601, 22.667099 ], [ -173.153253, 22.673467 ], [ -173.169873, 22.67991 ], [ -173.186459, 22.686428 ], [ -173.203012, 22.693021 ], [ -173.21953, 22.699689 ], [ -173.236014, 22.706432 ], [ -173.252463, 22.713249 ], [ -173.268877, 22.720141 ], [ -173.285256, 22.727107 ], [ -173.301598, 22.734147 ], [ -173.317904, 22.741261 ], [ -173.334173, 22.748448 ], [ -173.345556, 22.753541 ], [ -173.359479, 22.7512 ], [ -173.377226, 22.748299 ], [ -173.394988, 22.745478 ], [ -173.412765, 22.742737 ], [ -173.430555, 22.740076 ], [ -173.448359, 22.737497 ], [ -173.466175, 22.734997 ], [ -173.484005, 22.732578 ], [ -173.501846, 22.73024 ], [ -173.519699, 22.727982 ], [ -173.537564, 22.725805 ], [ -173.555439, 22.723709 ], [ -173.573325, 22.721693 ], [ -173.591222, 22.719759 ], [ -173.609127, 22.717905 ], [ -173.627043, 22.716132 ], [ -173.644967, 22.71444 ], [ -173.662899, 22.712829 ], [ -173.68084, 22.7113 ], [ -173.698788, 22.709851 ], [ -173.716743, 22.708483 ], [ -173.734705, 22.707197 ], [ -173.752674, 22.705992 ], [ -173.770648, 22.704868 ], [ -173.788628, 22.703825 ], [ -173.806613, 22.702863 ], [ -173.824603, 22.701983 ], [ -173.842597, 22.701184 ], [ -173.860595, 22.700466 ], [ -173.878597, 22.69983 ], [ -173.896601, 22.699275 ], [ -173.914609, 22.698802 ], [ -173.932618, 22.698409 ], [ -173.950629, 22.698099 ], [ -173.968642, 22.697869 ], [ -173.986655, 22.697721 ], [ -174.004669, 22.697654 ], [ -174.022684, 22.697669 ], [ -174.040698, 22.697765 ], [ -174.058711, 22.697943 ], [ -174.076723, 22.698202 ], [ -174.094734, 22.698542 ], [ -174.112742, 22.698964 ], [ -174.130748, 22.699467 ], [ -174.148752, 22.700052 ], [ -174.166752, 22.700717 ], [ -174.184749, 22.701465 ], [ -174.202742, 22.702293 ], [ -174.22073, 22.703203 ], [ -174.238713, 22.704194 ], [ -174.256691, 22.705266 ], [ -174.274664, 22.70642 ], [ -174.29263, 22.707654 ], [ -174.310589, 22.70897 ], [ -174.328542, 22.710367 ], [ -174.346488, 22.711845 ], [ -174.364425, 22.713405 ], [ -174.382355, 22.715045 ], [ -174.400276, 22.716766 ], [ -174.418187, 22.718568 ], [ -174.43609, 22.720451 ], [ -174.453982, 22.722415 ], [ -174.471865, 22.72446 ], [ -174.489736, 22.726586 ], [ -174.507597, 22.728792 ], [ -174.525446, 22.731079 ], [ -174.543283, 22.733447 ], [ -174.561107, 22.735895 ], [ -174.578919, 22.738424 ], [ -174.596718, 22.741033 ], [ -174.614504, 22.743722 ], [ -174.632275, 22.746492 ], [ -174.650032, 22.749342 ], [ -174.667774, 22.752273 ], [ -174.685501, 22.755283 ], [ -174.703212, 22.758374 ], [ -174.720907, 22.761544 ], [ -174.738586, 22.764795 ], [ -174.756248, 22.768125 ], [ -174.773892, 22.771535 ], [ -174.791519, 22.775025 ], [ -174.809128, 22.778594 ], [ -174.826718, 22.782243 ], [ -174.84429, 22.785971 ], [ -174.861842, 22.789779 ], [ -174.879374, 22.793666 ], [ -174.896886, 22.797632 ], [ -174.914378, 22.801677 ], [ -174.931849, 22.805801 ], [ -174.949298, 22.810004 ], [ -174.966726, 22.814286 ], [ -174.984131, 22.818646 ], [ -175.001514, 22.823085 ], [ -175.018874, 22.827603 ], [ -175.036211, 22.832199 ], [ -175.053523, 22.836873 ], [ -175.070812, 22.841625 ], [ -175.088076, 22.846456 ], [ -175.105315, 22.851364 ], [ -175.122528, 22.85635 ], [ -175.139716, 22.861414 ], [ -175.156878, 22.866556 ], [ -175.174013, 22.871775 ], [ -175.19112, 22.877071 ], [ -175.208201, 22.882444 ], [ -175.225254, 22.887895 ], [ -175.242278, 22.893423 ], [ -175.259274, 22.899027 ], [ -175.276241, 22.904708 ], [ -175.293179, 22.910466 ], [ -175.310086, 22.9163 ], [ -175.326964, 22.92221 ], [ -175.343811, 22.928197 ], [ -175.360627, 22.93426 ], [ -175.377412, 22.940398 ], [ -175.394165, 22.946613 ], [ -175.410885, 22.952902 ], [ -175.427573, 22.959268 ], [ -175.444229, 22.965709 ], [ -175.46085, 22.972224 ], [ -175.477439, 22.978815 ], [ -175.493993, 22.985481 ], [ -175.510512, 22.992221 ], [ -175.526997, 22.999036 ], [ -175.543446, 23.005925 ], [ -175.55986, 23.012889 ], [ -175.576237, 23.019926 ], [ -175.592579, 23.027038 ], [ -175.608883, 23.034223 ], [ -175.62515, 23.041482 ], [ -175.64138, 23.048814 ], [ -175.657571, 23.056219 ], [ -175.673724, 23.063697 ], [ -175.689839, 23.071249 ], [ -175.705914, 23.078872 ], [ -175.72195, 23.086569 ], [ -175.737946, 23.094338 ], [ -175.753902, 23.102178 ], [ -175.769817, 23.110091 ], [ -175.785691, 23.118076 ], [ -175.801523, 23.126132 ], [ -175.817314, 23.13426 ], [ -175.833063, 23.142459 ], [ -175.848769, 23.150728 ], [ -175.864432, 23.159069 ], [ -175.880052, 23.16748 ], [ -175.895629, 23.175962 ], [ -175.911161, 23.184514 ], [ -175.926649, 23.193136 ], [ -175.942092, 23.201828 ], [ -175.95749, 23.210589 ], [ -175.972843, 23.21942 ], [ -175.988149, 23.22832 ], [ -176.00341, 23.23729 ], [ -176.018624, 23.246327 ], [ -176.033791, 23.255434 ], [ -176.04891, 23.264609 ], [ -176.063982, 23.273852 ], [ -176.079006, 23.283163 ], [ -176.093982, 23.292541 ], [ -176.108908, 23.301988 ], [ -176.123786, 23.311501 ], [ -176.138614, 23.321082 ], [ -176.153393, 23.330729 ], [ -176.168121, 23.340443 ], [ -176.182798, 23.350223 ], [ -176.197425, 23.36007 ], [ -176.212001, 23.369982 ], [ -176.226524, 23.37996 ], [ -176.240996, 23.390004 ], [ -176.255416, 23.400113 ], [ -176.269783, 23.410286 ], [ -176.284097, 23.420525 ], [ -176.298357, 23.430828 ], [ -176.312564, 23.441195 ], [ -176.326717, 23.451626 ], [ -176.340815, 23.462121 ], [ -176.354859, 23.472679 ], [ -176.368848, 23.483301 ], [ -176.382781, 23.493986 ], [ -176.396659, 23.504733 ], [ -176.41048, 23.515543 ], [ -176.424245, 23.526415 ], [ -176.437954, 23.53735 ], [ -176.451605, 23.548346 ], [ -176.465198, 23.559403 ], [ -176.478734, 23.570522 ], [ -176.492212, 23.581701 ], [ -176.505632, 23.592942 ], [ -176.518992, 23.604242 ], [ -176.532294, 23.615603 ], [ -176.545536, 23.627024 ], [ -176.558719, 23.638504 ], [ -176.571841, 23.650044 ], [ -176.584903, 23.661643 ], [ -176.597904, 23.673301 ], [ -176.610845, 23.685017 ], [ -176.623724, 23.696791 ], [ -176.636541, 23.708624 ], [ -176.649296, 23.720514 ], [ -176.661989, 23.732461 ], [ -176.674619, 23.744466 ], [ -176.687187, 23.756527 ], [ -176.699691, 23.768645 ], [ -176.712131, 23.78082 ], [ -176.724508, 23.79305 ], [ -176.736821, 23.805336 ], [ -176.749069, 23.817677 ], [ -176.761252, 23.830074 ], [ -176.77337, 23.842525 ], [ -176.785423, 23.855031 ], [ -176.79741, 23.867591 ], [ -176.809331, 23.880205 ], [ -176.821186, 23.892873 ], [ -176.832974, 23.905594 ], [ -176.844695, 23.918368 ], [ -176.856349, 23.931194 ], [ -176.867936, 23.944073 ], [ -176.879454, 23.957004 ], [ -176.890905, 23.969987 ], [ -176.902287, 23.983022 ], [ -176.913601, 23.996108 ], [ -176.924846, 24.009244 ], [ -176.936021, 24.022431 ], [ -176.947127, 24.035669 ], [ -176.958163, 24.048956 ], [ -176.969129, 24.062293 ], [ -176.980025, 24.075679 ], [ -176.99085, 24.089114 ], [ -177.001604, 24.102598 ], [ -177.012287, 24.11613 ], [ -177.022898, 24.12971 ], [ -177.033438, 24.143338 ], [ -177.043905, 24.157013 ], [ -177.054301, 24.170736 ], [ -177.064623, 24.184505 ], [ -177.074873, 24.19832 ], [ -177.08505, 24.212181 ], [ -177.095153, 24.226088 ], [ -177.105183, 24.240041 ], [ -177.115139, 24.254039 ], [ -177.125021, 24.268081 ], [ -177.134828, 24.282167 ], [ -177.144561, 24.296298 ], [ -177.154219, 24.310473 ], [ -177.163801, 24.32469 ], [ -177.173308, 24.338951 ], [ -177.18274, 24.353255 ], [ -177.192095, 24.367601 ], [ -177.201375, 24.381989 ], [ -177.210578, 24.396418 ], [ -177.219704, 24.410889 ], [ -177.228753, 24.425401 ], [ -177.237725, 24.439953 ], [ -177.24662, 24.454546 ], [ -177.255437, 24.469178 ], [ -177.264176, 24.483851 ], [ -177.272837, 24.498562 ], [ -177.28142, 24.513312 ], [ -177.289924, 24.528101 ], [ -177.29835, 24.542928 ], [ -177.306696, 24.557793 ], [ -177.314963, 24.572695 ], [ -177.323151, 24.587634 ], [ -177.331259, 24.60261 ], [ -177.339286, 24.617622 ], [ -177.347234, 24.63267 ], [ -177.355102, 24.647754 ], [ -177.362488, 24.662097 ], [ -177.36806, 24.664152 ], [ -177.36911, 24.664538 ], [ -177.386058, 24.670814 ], [ -177.402973, 24.677165 ], [ -177.419854, 24.683592 ], [ -177.436703, 24.690093 ], [ -177.453517, 24.69667 ], [ -177.470297, 24.703321 ], [ -177.487042, 24.710047 ], [ -177.503751, 24.716847 ], [ -177.520426, 24.723721 ], [ -177.537064, 24.73067 ], [ -177.553666, 24.737692 ], [ -177.570232, 24.744788 ], [ -177.58676, 24.751958 ], [ -177.603251, 24.759201 ], [ -177.619704, 24.766518 ], [ -177.636118, 24.773907 ], [ -177.652494, 24.78137 ], [ -177.668831, 24.788905 ], [ -177.685129, 24.796512 ], [ -177.701387, 24.804193 ], [ -177.717604, 24.811945 ], [ -177.733781, 24.819769 ], [ -177.749917, 24.827666 ], [ -177.766012, 24.835633 ], [ -177.782065, 24.843673 ], [ -177.798076, 24.851783 ], [ -177.814044, 24.859965 ], [ -177.82997, 24.868218 ], [ -177.8369, 24.87185 ], [ -177.850323, 24.873295 ], [ -177.868503, 24.875333 ], [ -177.886672, 24.877453 ], [ -177.90483, 24.879653 ], [ -177.922976, 24.881933 ], [ -177.94111, 24.884294 ], [ -177.959232, 24.886735 ], [ -177.971946, 24.888496 ], [ -177.978323, 24.889394 ], [ -177.996419, 24.891995 ], [ -178.014501, 24.894677 ], [ -178.032569, 24.897439 ], [ -178.050622, 24.90028 ], [ -178.068661, 24.903202 ], [ -178.086684, 24.906204 ], [ -178.104691, 24.909286 ], [ -178.122682, 24.912447 ], [ -178.140657, 24.915688 ], [ -178.158615, 24.919009 ], [ -178.160052, 24.919278 ], [ -178.165767, 24.920344 ], [ -178.183707, 24.923744 ], [ -178.20163, 24.927223 ], [ -178.219534, 24.930783 ], [ -178.23742, 24.934421 ], [ -178.255286, 24.938138 ], [ -178.273133, 24.941935 ], [ -178.290961, 24.945811 ], [ -178.308768, 24.949765 ], [ -178.326554, 24.953799 ], [ -178.344319, 24.957911 ], [ -178.362062, 24.962102 ], [ -178.379784, 24.966372 ], [ -178.397483, 24.97072 ], [ -178.41516, 24.975146 ], [ -178.432813, 24.979651 ], [ -178.450443, 24.984234 ], [ -178.468048, 24.988895 ], [ -178.485629, 24.993633 ], [ -178.503186, 24.99845 ], [ -178.520717, 25.003345 ], [ -178.538223, 25.008317 ], [ -178.555702, 25.013366 ], [ -178.573156, 25.018493 ], [ -178.590582, 25.023697 ], [ -178.607981, 25.028979 ], [ -178.614451, 25.030965 ], [ -178.626261, 25.034617 ], [ -178.643604, 25.040052 ], [ -178.660919, 25.045564 ], [ -178.678206, 25.051153 ], [ -178.695462, 25.056818 ], [ -178.700774, 25.058589 ], [ -178.70323, 25.058809 ], [ -178.721478, 25.060524 ], [ -178.739716, 25.062321 ], [ -178.757944, 25.064198 ], [ -178.776163, 25.066155 ], [ -178.794371, 25.068194 ], [ -178.812569, 25.070313 ], [ -178.830755, 25.072512 ], [ -178.832053, 25.072672 ], [ -178.849153, 25.074819 ], [ -178.867316, 25.077179 ], [ -178.885466, 25.07962 ], [ -178.903604, 25.08214 ], [ -178.921728, 25.084741 ], [ -178.939838, 25.087422 ], [ -178.957934, 25.090183 ], [ -178.958097, 25.090208 ], [ -178.965593, 25.091362 ], [ -178.977265, 25.093186 ], [ -178.981403, 25.093825 ], [ -178.999486, 25.096666 ], [ -179.017553, 25.099587 ], [ -179.035605, 25.102588 ], [ -179.053641, 25.105669 ], [ -179.071661, 25.108829 ], [ -179.089665, 25.11207 ], [ -179.107651, 25.115389 ], [ -179.12562, 25.118789 ], [ -179.143571, 25.122267 ], [ -179.161504, 25.125825 ], [ -179.179418, 25.129463 ], [ -179.197313, 25.133179 ], [ -179.215189, 25.136975 ], [ -179.233045, 25.14085 ], [ -179.25088, 25.144803 ], [ -179.268695, 25.148836 ], [ -179.286488, 25.152947 ], [ -179.30426, 25.157137 ], [ -179.32201, 25.161405 ], [ -179.339738, 25.165752 ], [ -179.357442, 25.170177 ], [ -179.361246, 25.171139 ], [ -179.370225, 25.173421 ], [ -179.381977, 25.176424 ], [ -179.399635, 25.181005 ], [ -179.416805, 25.185541 ], [ -179.417545, 25.185738 ], [ -179.435155, 25.190476 ], [ -179.45274, 25.195291 ], [ -179.470299, 25.200184 ], [ -179.487834, 25.205155 ], [ -179.505341, 25.210203 ], [ -179.522823, 25.215329 ], [ -179.540278, 25.220532 ], [ -179.557705, 25.225812 ], [ -179.575105, 25.231169 ], [ -179.592477, 25.236603 ], [ -179.60982, 25.242113 ], [ -179.627134, 25.247701 ], [ -179.644419, 25.253364 ], [ -179.661675, 25.259105 ], [ -179.6789, 25.264921 ], [ -179.696095, 25.270813 ], [ -179.713259, 25.276782 ], [ -179.730391, 25.282826 ], [ -179.747492, 25.288946 ], [ -179.764561, 25.295142 ], [ -179.781598, 25.301413 ], [ -179.798601, 25.307759 ], [ -179.815571, 25.31418 ], [ -179.832508, 25.320676 ], [ -179.84941, 25.327247 ], [ -179.866278, 25.333893 ], [ -179.883111, 25.340613 ], [ -179.899909, 25.347408 ], [ -179.916672, 25.354277 ], [ -179.933398, 25.36122 ], [ -179.950088, 25.368236 ], [ -179.966741, 25.375327 ], [ -179.968929, 25.376265 ], [ -179.983571, 25.382582 ], [ -179.999988, 25.38975 ], [ -180.0, 25.389755 ], [ -180.0, 31.468318 ], [ -179.999988, 31.468323 ], [ -179.99922, 31.468645 ], [ -179.981682, 31.475906 ], [ -179.964099, 31.48309 ], [ -179.946472, 31.490197 ], [ -179.9288, 31.497225 ], [ -179.911086, 31.504175 ], [ -179.893329, 31.511047 ], [ -179.875529, 31.51784 ], [ -179.857687, 31.524555 ], [ -179.839804, 31.531191 ], [ -179.82188, 31.537747 ], [ -179.803915, 31.544225 ], [ -179.785911, 31.550623 ], [ -179.767867, 31.556942 ], [ -179.749784, 31.56318 ], [ -179.731662, 31.569339 ], [ -179.713503, 31.575418 ], [ -179.695305, 31.581416 ], [ -179.677071, 31.587334 ], [ -179.6588, 31.593172 ], [ -179.640493, 31.598928 ], [ -179.622151, 31.604604 ], [ -179.603773, 31.610198 ], [ -179.585361, 31.615712 ], [ -179.566915, 31.621144 ], [ -179.548435, 31.626494 ], [ -179.529923, 31.631763 ], [ -179.511377, 31.63695 ], [ -179.507343, 31.638066 ], [ -179.492319, 31.642188 ], [ -179.47371, 31.647211 ], [ -179.45507, 31.652151 ], [ -179.436399, 31.657009 ], [ -179.417698, 31.661785 ], [ -179.398968, 31.666478 ], [ -179.380209, 31.671089 ], [ -179.361421, 31.675616 ], [ -179.342605, 31.68006 ], [ -179.340143, 31.680635 ], [ -179.332102, 31.682524 ], [ -179.313258, 31.686885 ], [ -179.294387, 31.691163 ], [ -179.282426, 31.693828 ], [ -179.274621, 31.69555 ], [ -179.255698, 31.699661 ], [ -179.236749, 31.703688 ], [ -179.217776, 31.707632 ], [ -179.198778, 31.711492 ], [ -179.179757, 31.715268 ], [ -179.160712, 31.718959 ], [ -179.141644, 31.722567 ], [ -179.122554, 31.72609 ], [ -179.103442, 31.729529 ], [ -179.084309, 31.732884 ], [ -179.065155, 31.736154 ], [ -179.045981, 31.739339 ], [ -179.026788, 31.74244 ], [ -179.007575, 31.745456 ], [ -178.988344, 31.748387 ], [ -178.969094, 31.751233 ], [ -178.949828, 31.753994 ], [ -178.9436, 31.754868 ], [ -178.926685, 31.75721 ], [ -178.907384, 31.759801 ], [ -178.888068, 31.762306 ], [ -178.868736, 31.764726 ], [ -178.849389, 31.767061 ], [ -178.840683, 31.768083 ], [ -178.829753, 31.769342 ], [ -178.810378, 31.771505 ], [ -178.79099, 31.773584 ], [ -178.771589, 31.775576 ], [ -178.752176, 31.777482 ], [ -178.732751, 31.779303 ], [ -178.713315, 31.781038 ], [ -178.693869, 31.782688 ], [ -178.674412, 31.784251 ], [ -178.654946, 31.785728 ], [ -178.635471, 31.787119 ], [ -178.615988, 31.788425 ], [ -178.596496, 31.789644 ], [ -178.576998, 31.790777 ], [ -178.557492, 31.791824 ], [ -178.53798, 31.792785 ], [ -178.518462, 31.79366 ], [ -178.49894, 31.794448 ], [ -178.479412, 31.79515 ], [ -178.467053, 31.79555 ], [ -178.453659, 31.795963 ], [ -178.434124, 31.796493 ], [ -178.414585, 31.796936 ], [ -178.395044, 31.797293 ], [ -178.375502, 31.797564 ], [ -178.355957, 31.797749 ], [ -178.336412, 31.797847 ], [ -178.323961, 31.797864 ], [ -178.304415, 31.797821 ], [ -178.28487, 31.797692 ], [ -178.265327, 31.797476 ], [ -178.245784, 31.797174 ], [ -178.245536, 31.797169 ], [ -178.245525, 31.797169 ], [ -178.225985, 31.796781 ], [ -178.206448, 31.796306 ], [ -178.186914, 31.795745 ], [ -178.167384, 31.795098 ], [ -178.147858, 31.794364 ], [ -178.128337, 31.793545 ], [ -178.108821, 31.792639 ], [ -178.089311, 31.791646 ], [ -178.069808, 31.790568 ], [ -178.050312, 31.789404 ], [ -178.030823, 31.788153 ], [ -178.011342, 31.786817 ], [ -177.991871, 31.785394 ], [ -177.972408, 31.783886 ], [ -177.952955, 31.782291 ], [ -177.933512, 31.780611 ], [ -177.91408, 31.778845 ], [ -177.894659, 31.776993 ], [ -177.875251, 31.775055 ], [ -177.855854, 31.773032 ], [ -177.836471, 31.770923 ], [ -177.822001, 31.769291 ], [ -177.816459, 31.768654 ], [ -177.797103, 31.766374 ], [ -177.777761, 31.764009 ], [ -177.758435, 31.761558 ], [ -177.739124, 31.759021 ], [ -177.719829, 31.7564 ], [ -177.700551, 31.753693 ], [ -177.681291, 31.750901 ], [ -177.662048, 31.748024 ], [ -177.642823, 31.745063 ], [ -177.623617, 31.742016 ], [ -177.60443, 31.738885 ], [ -177.585264, 31.735668 ], [ -177.566117, 31.732368 ], [ -177.557868, 31.730918 ], [ -177.54994, 31.72952 ], [ -177.5414, 31.727998 ], [ -177.522296, 31.724528 ], [ -177.503214, 31.720974 ], [ -177.484155, 31.717336 ], [ -177.465119, 31.713614 ], [ -177.446106, 31.709807 ], [ -177.427117, 31.705917 ], [ -177.408152, 31.701943 ], [ -177.389213, 31.697885 ], [ -177.370299, 31.693744 ], [ -177.351412, 31.689519 ], [ -177.332551, 31.685211 ], [ -177.313717, 31.68082 ], [ -177.294911, 31.676345 ], [ -177.276133, 31.671788 ], [ -177.257384, 31.667147 ], [ -177.238664, 31.662424 ], [ -177.219973, 31.657618 ], [ -177.201313, 31.65273 ], [ -177.182684, 31.64776 ], [ -177.164086, 31.642707 ], [ -177.163017, 31.642414 ], [ -177.160944, 31.641846 ], [ -177.142378, 31.636712 ], [ -177.123844, 31.631495 ], [ -177.105342, 31.626196 ], [ -177.086874, 31.620816 ], [ -177.06844, 31.615355 ], [ -177.05004, 31.609812 ], [ -177.04995, 31.609784 ], [ -177.032902, 31.608537 ], [ -177.013476, 31.607029 ], [ -176.99406, 31.605434 ], [ -176.993286, 31.605369 ], [ -176.991072, 31.605183 ], [ -176.971666, 31.603503 ], [ -176.952271, 31.601737 ], [ -176.932887, 31.599886 ], [ -176.913515, 31.597948 ], [ -176.894155, 31.595925 ], [ -176.874809, 31.593817 ], [ -176.855475, 31.591622 ], [ -176.836156, 31.589343 ], [ -176.816851, 31.586978 ], [ -176.797561, 31.584527 ], [ -176.778287, 31.581991 ], [ -176.759029, 31.57937 ], [ -176.739787, 31.576664 ], [ -176.720563, 31.573873 ], [ -176.701356, 31.570997 ], [ -176.682168, 31.568036 ], [ -176.662998, 31.564989 ], [ -176.643848, 31.561859 ], [ -176.624717, 31.558643 ], [ -176.605607, 31.555343 ], [ -176.586517, 31.551959 ], [ -176.569429, 31.548854 ], [ -176.567183, 31.548441 ], [ -176.548137, 31.544888 ], [ -176.529113, 31.54125 ], [ -176.510112, 31.537529 ], [ -176.491135, 31.533723 ], [ -176.472182, 31.529834 ], [ -176.453253, 31.52586 ], [ -176.434349, 31.521803 ], [ -176.420408, 31.518755 ], [ -176.412817, 31.517079 ], [ -176.393965, 31.512855 ], [ -176.38365, 31.510506 ], [ -176.37095, 31.507591 ], [ -176.352152, 31.5032 ], [ -176.333381, 31.498726 ], [ -176.331009, 31.498155 ], [ -176.312855, 31.49374 ], [ -176.294141, 31.489101 ], [ -176.275457, 31.484379 ], [ -176.256801, 31.479574 ], [ -176.238176, 31.474687 ], [ -176.219582, 31.469717 ], [ -176.201018, 31.464665 ], [ -176.182487, 31.459532 ], [ -176.163987, 31.454316 ], [ -176.145521, 31.449019 ], [ -176.127087, 31.44364 ], [ -176.108687, 31.438179 ], [ -176.090321, 31.432637 ], [ -176.07199, 31.427014 ], [ -176.053694, 31.42131 ], [ -176.035434, 31.415526 ], [ -176.01721, 31.40966 ], [ -175.999022, 31.403714 ], [ -175.980872, 31.397688 ], [ -175.96276, 31.391581 ], [ -175.944685, 31.385394 ], [ -175.926649, 31.379128 ], [ -175.908652, 31.372782 ], [ -175.890695, 31.366356 ], [ -175.872778, 31.359851 ], [ -175.854901, 31.353267 ], [ -175.843494, 31.349016 ], [ -175.836437, 31.346368 ], [ -175.818643, 31.339626 ], [ -175.800891, 31.332806 ], [ -175.783181, 31.325907 ], [ -175.765514, 31.31893 ], [ -175.747891, 31.311874 ], [ -175.730312, 31.304741 ], [ -175.727771, 31.303696 ], [ -175.727701, 31.303696 ], [ -175.708261, 31.303394 ], [ -175.688824, 31.303005 ], [ -175.673613, 31.302641 ], [ -175.663475, 31.302383 ], [ -175.644043, 31.301823 ], [ -175.624615, 31.301176 ], [ -175.605192, 31.300443 ], [ -175.585773, 31.299623 ], [ -175.576338, 31.299194 ], [ -175.563004, 31.298563 ], [ -175.543597, 31.297572 ], [ -175.524196, 31.296494 ], [ -175.504802, 31.29533 ], [ -175.485416, 31.29408 ], [ -175.466038, 31.292745 ], [ -175.446668, 31.291323 ], [ -175.427307, 31.289815 ], [ -175.407956, 31.288222 ], [ -175.388615, 31.286542 ], [ -175.369285, 31.284777 ], [ -175.349967, 31.282926 ], [ -175.33066, 31.28099 ], [ -175.311365, 31.278967 ], [ -175.292083, 31.27686 ], [ -175.272814, 31.274666 ], [ -175.25356, 31.272387 ], [ -175.23432, 31.270023 ], [ -175.215094, 31.267574 ], [ -175.195885, 31.265039 ], [ -175.191507, 31.264449 ], [ -175.173512, 31.26199 ], [ -175.154335, 31.259285 ], [ -175.135175, 31.256495 ], [ -175.116032, 31.253619 ], [ -175.100187, 31.251173 ], [ -175.088402, 31.249339 ], [ -175.069296, 31.246294 ], [ -175.05021, 31.243164 ], [ -175.031144, 31.23995 ], [ -175.012097, 31.236651 ], [ -174.993072, 31.233268 ], [ -174.974068, 31.2298 ], [ -174.955085, 31.226248 ], [ -174.936125, 31.222612 ], [ -174.917188, 31.218892 ], [ -174.898274, 31.215087 ], [ -174.879384, 31.211199 ], [ -174.860518, 31.207228 ], [ -174.841677, 31.203172 ], [ -174.837416, 31.202243 ], [ -174.821122, 31.198653 ], [ -174.802332, 31.194431 ], [ -174.783569, 31.190125 ], [ -174.764834, 31.185736 ], [ -174.746125, 31.181264 ], [ -174.727445, 31.176709 ], [ -174.708792, 31.172071 ], [ -174.690169, 31.167351 ], [ -174.671576, 31.162548 ], [ -174.653012, 31.157662 ], [ -174.634479, 31.152695 ], [ -174.615977, 31.147645 ], [ -174.597507, 31.142513 ], [ -174.579069, 31.137299 ], [ -174.560663, 31.132004 ], [ -174.54229, 31.126626 ], [ -174.52395, 31.121168 ], [ -174.505645, 31.115628 ], [ -174.487374, 31.110007 ], [ -174.469138, 31.104305 ], [ -174.450938, 31.098522 ], [ -174.432774, 31.092659 ], [ -174.414646, 31.086715 ], [ -174.396555, 31.080691 ], [ -174.378502, 31.074586 ], [ -174.360486, 31.068402 ], [ -174.342509, 31.062137 ], [ -174.324571, 31.055793 ], [ -174.306673, 31.04937 ], [ -174.288814, 31.042867 ], [ -174.270995, 31.036285 ], [ -174.253218, 31.029624 ], [ -174.235482, 31.022884 ], [ -174.217787, 31.016066 ], [ -174.200135, 31.009169 ], [ -174.182526, 31.002194 ], [ -174.167824, 30.996298 ], [ -174.158166, 30.992409 ], [ -174.140644, 30.985278 ], [ -174.123166, 30.97807 ], [ -174.105733, 30.970784 ], [ -174.088345, 30.963421 ], [ -174.071002, 30.955981 ], [ -174.053706, 30.948464 ], [ -174.036456, 30.94087 ], [ -174.019252, 30.9332 ], [ -174.002097, 30.925454 ], [ -173.984989, 30.917632 ], [ -173.967929, 30.909734 ], [ -173.950918, 30.90176 ], [ -173.933956, 30.893711 ], [ -173.927135, 30.890446 ], [ -173.913944, 30.884101 ], [ -173.897082, 30.875902 ], [ -173.880271, 30.867629 ], [ -173.863511, 30.859281 ], [ -173.846802, 30.850858 ], [ -173.830145, 30.842362 ], [ -173.813541, 30.833792 ], [ -173.796989, 30.825148 ], [ -173.78049, 30.816431 ], [ -173.764045, 30.807641 ], [ -173.748281, 30.799119 ], [ -173.745476, 30.797595 ], [ -173.729139, 30.78866 ], [ -173.712858, 30.779652 ], [ -173.696632, 30.770572 ], [ -173.680461, 30.76142 ], [ -173.673334, 30.757353 ], [ -173.664083, 30.752046 ], [ -173.648025, 30.742751 ], [ -173.632025, 30.733385 ], [ -173.616081, 30.723949 ], [ -173.600196, 30.714441 ], [ -173.584369, 30.704864 ], [ -173.568601, 30.695216 ], [ -173.552892, 30.685499 ], [ -173.537242, 30.675712 ], [ -173.521652, 30.665855 ], [ -173.506122, 30.65593 ], [ -173.490653, 30.645936 ], [ -173.475245, 30.635873 ], [ -173.459899, 30.625743 ], [ -173.453063, 30.621195 ], [ -173.438547, 30.611507 ], [ -173.423326, 30.60124 ], [ -173.408167, 30.590907 ], [ -173.393071, 30.580506 ], [ -173.378038, 30.570038 ], [ -173.363069, 30.559504 ], [ -173.356434, 30.554799 ], [ -173.344786, 30.546505 ], [ -173.329946, 30.535839 ], [ -173.315171, 30.525107 ], [ -173.300462, 30.514309 ], [ -173.285818, 30.503447 ], [ -173.271241, 30.49252 ], [ -173.256729, 30.481528 ], [ -173.242285, 30.470472 ], [ -173.227908, 30.459352 ], [ -173.213598, 30.448168 ], [ -173.199356, 30.436921 ], [ -173.185182, 30.425611 ], [ -173.171077, 30.414239 ], [ -173.159604, 30.4049 ], [ -173.147859, 30.395324 ], [ -173.133893, 30.383827 ], [ -173.119997, 30.372268 ], [ -173.106171, 30.360648 ], [ -173.092415, 30.348966 ], [ -173.07873, 30.337224 ], [ -173.065116, 30.325421 ], [ -173.051573, 30.313558 ], [ -173.038102, 30.301635 ], [ -173.024703, 30.289652 ], [ -173.011376, 30.27761 ], [ -172.998122, 30.265509 ], [ -172.984941, 30.25335 ], [ -172.971833, 30.241132 ], [ -172.958799, 30.228856 ], [ -172.945839, 30.216523 ], [ -172.932953, 30.204132 ], [ -172.920141, 30.191684 ], [ -172.907405, 30.17918 ], [ -172.894744, 30.166619 ], [ -172.882158, 30.154003 ], [ -172.869648, 30.14133 ], [ -172.857215, 30.128603 ], [ -172.849816, 30.120965 ], [ -172.843239, 30.114145 ], [ -172.830959, 30.101308 ], [ -172.818756, 30.088417 ], [ -172.80663, 30.075471 ], [ -172.794581, 30.062472 ], [ -172.782611, 30.04942 ], [ -172.770718, 30.036314 ], [ -172.758905, 30.023156 ], [ -172.747169, 30.009946 ], [ -172.735513, 29.996684 ], [ -172.723936, 29.983371 ], [ -172.712439, 29.970006 ], [ -172.701022, 29.956591 ], [ -172.689684, 29.943125 ], [ -172.678428, 29.929609 ], [ -172.667251, 29.916043 ], [ -172.656156, 29.902428 ], [ -172.645142, 29.888763 ], [ -172.634209, 29.87505 ], [ -172.623358, 29.861289 ], [ -172.612588, 29.84748 ], [ -172.601901, 29.833623 ], [ -172.599033, 29.829878 ], [ -172.589439, 29.817293 ], [ -172.578917, 29.803342 ], [ -172.568479, 29.789345 ], [ -172.558123, 29.775301 ], [ -172.54785, 29.761212 ], [ -172.537662, 29.747078 ], [ -172.527557, 29.732898 ], [ -172.517536, 29.718674 ], [ -172.507599, 29.704405 ], [ -172.497747, 29.690093 ], [ -172.487979, 29.675737 ], [ -172.478297, 29.661338 ], [ -172.4687, 29.646897 ], [ -172.459188, 29.632413 ], [ -172.449761, 29.617886 ], [ -172.440421, 29.603319 ], [ -172.431166, 29.58871 ], [ -172.421998, 29.57406 ], [ -172.412916, 29.55937 ], [ -172.403921, 29.544639 ], [ -172.395012, 29.529869 ], [ -172.386191, 29.51506 ], [ -172.377456, 29.500211 ], [ -172.368809, 29.485324 ], [ -172.36025, 29.470399 ], [ -172.351778, 29.455437 ], [ -172.343394, 29.440436 ], [ -172.335099, 29.425399 ], [ -172.326891, 29.410325 ], [ -172.318772, 29.395215 ], [ -172.310742, 29.380069 ], [ -172.302801, 29.364888 ], [ -172.294948, 29.349672 ], [ -172.287185, 29.334421 ], [ -172.27951, 29.319136 ], [ -172.271926, 29.303817 ], [ -172.264431, 29.288464 ], [ -172.257025, 29.273079 ], [ -172.24971, 29.25766 ], [ -172.242484, 29.24221 ], [ -172.235349, 29.226728 ], [ -172.228304, 29.211214 ], [ -172.221349, 29.195669 ], [ -172.214485, 29.180094 ], [ -172.207712, 29.164488 ], [ -172.20103, 29.148852 ], [ -172.194439, 29.133187 ], [ -172.187939, 29.117493 ], [ -172.182686, 29.104607 ] ] ], [ [ [ 180.0, 25.389755 ], [ 179.999851, 25.38982 ], [ 179.983311, 25.39713 ], [ 179.966809, 25.404514 ], [ 179.950346, 25.41197 ], [ 179.933922, 25.4195 ], [ 179.917538, 25.427101 ], [ 179.901193, 25.434775 ], [ 179.884889, 25.442521 ], [ 179.868625, 25.45034 ], [ 179.852403, 25.45823 ], [ 179.836222, 25.466191 ], [ 179.820083, 25.474224 ], [ 179.803986, 25.482329 ], [ 179.787932, 25.490504 ], [ 179.77192, 25.49875 ], [ 179.755952, 25.507067 ], [ 179.740028, 25.515455 ], [ 179.724148, 25.523912 ], [ 179.708312, 25.53244 ], [ 179.692522, 25.541038 ], [ 179.676776, 25.549705 ], [ 179.661076, 25.558442 ], [ 179.645422, 25.567248 ], [ 179.629814, 25.576124 ], [ 179.614254, 25.585068 ], [ 179.59874, 25.594081 ], [ 179.583274, 25.603162 ], [ 179.567855, 25.612311 ], [ 179.552485, 25.621529 ], [ 179.537163, 25.630815 ], [ 179.52189, 25.640168 ], [ 179.506667, 25.649588 ], [ 179.491493, 25.659075 ], [ 179.476369, 25.66863 ], [ 179.461296, 25.678251 ], [ 179.446273, 25.687939 ], [ 179.431302, 25.697693 ], [ 179.416382, 25.707513 ], [ 179.401514, 25.717399 ], [ 179.386698, 25.727351 ], [ 179.371934, 25.737367 ], [ 179.357224, 25.747449 ], [ 179.342567, 25.757596 ], [ 179.327963, 25.767808 ], [ 179.313413, 25.778083 ], [ 179.298918, 25.788424 ], [ 179.284477, 25.798827 ], [ 179.270092, 25.809295 ], [ 179.255761, 25.819826 ], [ 179.251438, 25.823024 ], [ 179.240503, 25.831149 ], [ 179.226284, 25.841806 ], [ 179.222546, 25.844625 ], [ 179.209905, 25.854199 ], [ 179.195799, 25.864981 ], [ 179.18175, 25.875826 ], [ 179.167759, 25.886732 ], [ 179.153826, 25.8977 ], [ 179.139951, 25.90873 ], [ 179.126134, 25.919821 ], [ 179.112376, 25.930973 ], [ 179.098677, 25.942185 ], [ 179.085038, 25.953458 ], [ 179.071458, 25.96479 ], [ 179.057939, 25.976183 ], [ 179.04448, 25.987635 ], [ 179.031082, 25.999147 ], [ 179.017745, 26.010717 ], [ 179.004469, 26.022347 ], [ 178.991255, 26.034035 ], [ 178.978104, 26.045781 ], [ 178.965015, 26.057585 ], [ 178.951988, 26.069447 ], [ 178.939025, 26.081366 ], [ 178.926125, 26.093342 ], [ 178.913289, 26.105375 ], [ 178.900517, 26.117465 ], [ 178.887809, 26.12961 ], [ 178.875166, 26.141812 ], [ 178.862588, 26.15407 ], [ 178.850075, 26.166383 ], [ 178.837628, 26.178751 ], [ 178.825247, 26.191174 ], [ 178.812932, 26.203651 ], [ 178.800683, 26.216183 ], [ 178.788502, 26.228768 ], [ 178.776388, 26.241408 ], [ 178.764341, 26.2541 ], [ 178.752362, 26.266846 ], [ 178.740451, 26.279644 ], [ 178.728609, 26.292495 ], [ 178.716835, 26.305398 ], [ 178.70513, 26.318352 ], [ 178.693494, 26.331359 ], [ 178.681929, 26.344416 ], [ 178.670433, 26.357525 ], [ 178.659007, 26.370683 ], [ 178.647651, 26.383893 ], [ 178.636367, 26.397152 ], [ 178.625153, 26.410461 ], [ 178.623674, 26.412226 ], [ 178.613781, 26.424094 ], [ 178.60271, 26.437501 ], [ 178.591711, 26.450957 ], [ 178.580785, 26.464461 ], [ 178.569931, 26.478014 ], [ 178.55915, 26.491614 ], [ 178.548441, 26.505261 ], [ 178.537806, 26.518956 ], [ 178.527245, 26.532698 ], [ 178.516758, 26.546486 ], [ 178.506344, 26.56032 ], [ 178.496005, 26.5742 ], [ 178.485741, 26.588125 ], [ 178.475552, 26.602095 ], [ 178.465438, 26.616111 ], [ 178.4554, 26.63017 ], [ 178.445437, 26.644274 ], [ 178.43555, 26.658422 ], [ 178.42574, 26.672613 ], [ 178.416006, 26.686847 ], [ 178.406349, 26.701124 ], [ 178.396769, 26.715444 ], [ 178.387266, 26.729805 ], [ 178.377841, 26.744208 ], [ 178.368493, 26.758653 ], [ 178.359224, 26.773139 ], [ 178.350033, 26.787665 ], [ 178.340921, 26.802232 ], [ 178.331887, 26.816839 ], [ 178.331235, 26.817901 ], [ 178.327306, 26.824308 ], [ 178.324519, 26.828778 ], [ 178.315483, 26.843385 ], [ 178.306526, 26.858031 ], [ 178.297648, 26.872717 ], [ 178.28885, 26.887441 ], [ 178.280132, 26.902205 ], [ 178.271493, 26.917006 ], [ 178.262935, 26.931845 ], [ 178.254458, 26.946722 ], [ 178.246061, 26.961637 ], [ 178.237745, 26.976588 ], [ 178.229511, 26.991575 ], [ 178.221357, 27.006599 ], [ 178.213286, 27.021658 ], [ 178.205296, 27.036753 ], [ 178.197389, 27.051883 ], [ 178.19632, 27.053943 ], [ 178.189426, 27.067313 ], [ 178.181683, 27.082512 ], [ 178.174023, 27.097745 ], [ 178.166446, 27.113011 ], [ 178.158953, 27.128311 ], [ 178.151542, 27.143643 ], [ 178.144216, 27.159008 ], [ 178.136973, 27.174406 ], [ 178.129814, 27.189834 ], [ 178.12274, 27.205295 ], [ 178.115749, 27.220786 ], [ 178.108844, 27.236308 ], [ 178.102024, 27.25186 ], [ 178.095288, 27.267442 ], [ 178.088638, 27.283053 ], [ 178.082073, 27.298694 ], [ 178.075594, 27.314363 ], [ 178.0692, 27.330061 ], [ 178.062893, 27.345787 ], [ 178.056672, 27.36154 ], [ 178.050537, 27.37732 ], [ 178.044489, 27.393128 ], [ 178.038528, 27.408962 ], [ 178.032653, 27.424822 ], [ 178.026866, 27.440707 ], [ 178.021166, 27.456618 ], [ 178.015554, 27.472554 ], [ 178.010029, 27.488514 ], [ 178.004592, 27.504499 ], [ 177.999243, 27.520507 ], [ 177.993982, 27.536539 ], [ 177.988809, 27.552593 ], [ 177.983725, 27.56867 ], [ 177.978729, 27.58477 ], [ 177.973823, 27.600891 ], [ 177.969005, 27.617034 ], [ 177.964276, 27.633197 ], [ 177.959637, 27.649381 ], [ 177.955087, 27.665586 ], [ 177.950627, 27.68181 ], [ 177.946256, 27.698054 ], [ 177.941976, 27.714317 ], [ 177.937785, 27.730598 ], [ 177.933684, 27.746898 ], [ 177.933663, 27.746983 ], [ 177.933612, 27.747186 ], [ 177.929602, 27.763504 ], [ 177.925682, 27.779839 ], [ 177.921853, 27.796191 ], [ 177.918114, 27.81256 ], [ 177.914467, 27.828945 ], [ 177.91091, 27.845345 ], [ 177.907444, 27.861762 ], [ 177.904069, 27.878193 ], [ 177.900786, 27.894639 ], [ 177.897595, 27.911099 ], [ 177.894494, 27.927573 ], [ 177.891486, 27.944061 ], [ 177.888569, 27.960561 ], [ 177.885745, 27.977075 ], [ 177.883012, 27.9936 ], [ 177.880371, 28.010137 ], [ 177.877823, 28.026686 ], [ 177.875367, 28.043245 ], [ 177.873004, 28.059815 ], [ 177.870733, 28.076396 ], [ 177.868554, 28.092986 ], [ 177.866469, 28.109585 ], [ 177.864476, 28.126194 ], [ 177.862576, 28.142811 ], [ 177.86077, 28.159436 ], [ 177.859056, 28.176069 ], [ 177.857436, 28.192709 ], [ 177.855909, 28.209356 ], [ 177.854475, 28.226009 ], [ 177.853134, 28.242669 ], [ 177.851888, 28.259334 ], [ 177.850734, 28.276005 ], [ 177.849675, 28.29268 ], [ 177.848709, 28.30936 ], [ 177.847837, 28.326044 ], [ 177.847059, 28.342731 ], [ 177.846375, 28.359422 ], [ 177.845784, 28.376115 ], [ 177.845288, 28.392811 ], [ 177.844886, 28.409509 ], [ 177.844578, 28.426208 ], [ 177.844365, 28.442908 ], [ 177.844245, 28.459609 ], [ 177.84422, 28.47631 ], [ 177.844289, 28.493012 ], [ 177.844453, 28.509712 ], [ 177.844711, 28.526412 ], [ 177.845063, 28.54311 ], [ 177.84551, 28.559806 ], [ 177.846052, 28.5765 ], [ 177.846327, 28.584035 ], [ 177.846699, 28.593475 ], [ 177.847246, 28.606168 ], [ 177.847613, 28.614294 ], [ 177.848439, 28.630979 ], [ 177.849359, 28.64766 ], [ 177.850373, 28.664337 ], [ 177.851483, 28.681009 ], [ 177.852687, 28.697676 ], [ 177.853986, 28.714337 ], [ 177.855379, 28.730993 ], [ 177.856868, 28.747642 ], [ 177.857614, 28.755609 ], [ 177.858522, 28.765038 ], [ 177.8602, 28.781673 ], [ 177.861973, 28.798301 ], [ 177.86384, 28.81492 ], [ 177.865802, 28.831531 ], [ 177.867859, 28.848133 ], [ 177.870011, 28.864725 ], [ 177.872258, 28.881308 ], [ 177.874599, 28.897881 ], [ 177.875428, 28.903595 ], [ 177.877143, 28.915184 ], [ 177.879674, 28.931735 ], [ 177.882299, 28.948274 ], [ 177.884928, 28.96426 ], [ 177.885143, 28.965543 ], [ 177.887957, 28.982059 ], [ 177.888241, 28.983693 ], [ 177.888292, 28.983988 ], [ 177.889424, 28.990472 ], [ 177.889615, 28.991562 ], [ 177.891331, 29.001228 ], [ 177.894335, 29.017718 ], [ 177.897433, 29.034194 ], [ 177.900626, 29.050656 ], [ 177.903914, 29.067104 ], [ 177.9064, 29.079229 ], [ 177.907349, 29.083794 ], [ 177.910825, 29.100212 ], [ 177.914396, 29.116615 ], [ 177.918062, 29.133001 ], [ 177.921821, 29.149372 ], [ 177.925675, 29.165725 ], [ 177.929623, 29.182061 ], [ 177.933665, 29.19838 ], [ 177.937801, 29.21468 ], [ 177.942031, 29.230962 ], [ 177.946355, 29.247225 ], [ 177.950773, 29.263469 ], [ 177.955285, 29.279693 ], [ 177.959891, 29.295896 ], [ 177.96022, 29.297043 ], [ 177.964798, 29.312802 ], [ 177.96959, 29.328964 ], [ 177.974477, 29.345105 ], [ 177.979457, 29.361225 ], [ 177.98453, 29.377321 ], [ 177.989696, 29.393396 ], [ 177.994956, 29.409447 ], [ 178.000309, 29.425475 ], [ 178.005755, 29.441479 ], [ 178.011293, 29.457459 ], [ 178.016925, 29.473414 ], [ 178.022649, 29.489344 ], [ 178.028466, 29.505248 ], [ 178.034376, 29.521127 ], [ 178.040377, 29.536979 ], [ 178.046471, 29.552804 ], [ 178.052658, 29.568603 ], [ 178.058936, 29.584374 ], [ 178.065306, 29.600117 ], [ 178.071769, 29.615831 ], [ 178.078322, 29.631517 ], [ 178.084968, 29.647174 ], [ 178.091705, 29.662801 ], [ 178.098533, 29.678398 ], [ 178.101227, 29.684489 ], [ 178.105673, 29.694464 ], [ 178.112684, 29.71 ], [ 178.119785, 29.725505 ], [ 178.126977, 29.740978 ], [ 178.13426, 29.75642 ], [ 178.141633, 29.771829 ], [ 178.149097, 29.787205 ], [ 178.156651, 29.802549 ], [ 178.164295, 29.817858 ], [ 178.172028, 29.833134 ], [ 178.179852, 29.848375 ], [ 178.187765, 29.863582 ], [ 178.195767, 29.878753 ], [ 178.203859, 29.893889 ], [ 178.210931, 29.906955 ], [ 178.212161, 29.909214 ], [ 178.220431, 29.924277 ], [ 178.228789, 29.939304 ], [ 178.237236, 29.954294 ], [ 178.245771, 29.969247 ], [ 178.254394, 29.984161 ], [ 178.263106, 29.999037 ], [ 178.271905, 30.013875 ], [ 178.271995, 30.014025 ], [ 178.275247, 30.019487 ], [ 178.284134, 30.034286 ], [ 178.293109, 30.049045 ], [ 178.30217, 30.063764 ], [ 178.311319, 30.078444 ], [ 178.318611, 30.090015 ], [ 178.320983, 30.093759 ], [ 178.321443, 30.094484 ], [ 178.33068, 30.108947 ], [ 178.340089, 30.123503 ], [ 178.349584, 30.138018 ], [ 178.353662, 30.144199 ], [ 178.359314, 30.152714 ], [ 178.368981, 30.167144 ], [ 178.378733, 30.181531 ], [ 178.388571, 30.195875 ], [ 178.398494, 30.210175 ], [ 178.408502, 30.224432 ], [ 178.410182, 30.226808 ], [ 178.418902, 30.239078 ], [ 178.42908, 30.253245 ], [ 178.439341, 30.267367 ], [ 178.449687, 30.281444 ], [ 178.460116, 30.295475 ], [ 178.470629, 30.309459 ], [ 178.481225, 30.323397 ], [ 178.48323, 30.326016 ], [ 178.486406, 30.330156 ], [ 178.492392, 30.337924 ], [ 178.503155, 30.351767 ], [ 178.513999, 30.365563 ], [ 178.524926, 30.379311 ], [ 178.535936, 30.39301 ], [ 178.547026, 30.406661 ], [ 178.552352, 30.413163 ], [ 178.558653, 30.420816 ], [ 178.569907, 30.434368 ], [ 178.570563, 30.435153 ], [ 178.579734, 30.446084 ], [ 178.581907, 30.448662 ], [ 178.593323, 30.462114 ], [ 178.604819, 30.475515 ], [ 178.616396, 30.488866 ], [ 178.628052, 30.502165 ], [ 178.639788, 30.515412 ], [ 178.651604, 30.528608 ], [ 178.653412, 30.530615 ], [ 178.664356, 30.542703 ], [ 178.67633, 30.555793 ], [ 178.688114, 30.568543 ], [ 178.688548, 30.569009 ], [ 178.690509, 30.571118 ], [ 178.6909, 30.571539 ], [ 178.69155, 30.572239 ], [ 178.703681, 30.585224 ], [ 178.71589, 30.598154 ], [ 178.728177, 30.61103 ], [ 178.740541, 30.623853 ], [ 178.752982, 30.63662 ], [ 178.7655, 30.649332 ], [ 178.778094, 30.661989 ], [ 178.790765, 30.67459 ], [ 178.803511, 30.687135 ], [ 178.816333, 30.699623 ], [ 178.829231, 30.712055 ], [ 178.842203, 30.724429 ], [ 178.85525, 30.736746 ], [ 178.868371, 30.749006 ], [ 178.881567, 30.761207 ], [ 178.894836, 30.77335 ], [ 178.908178, 30.785434 ], [ 178.921594, 30.797459 ], [ 178.935082, 30.809425 ], [ 178.948642, 30.821331 ], [ 178.962275, 30.833177 ], [ 178.975979, 30.844963 ], [ 178.989754, 30.856688 ], [ 179.003601, 30.868352 ], [ 179.017518, 30.879954 ], [ 179.031506, 30.891496 ], [ 179.045563, 30.902975 ], [ 179.05969, 30.914392 ], [ 179.067705, 30.920817 ], [ 179.073933, 30.925783 ], [ 179.088198, 30.937075 ], [ 179.102532, 30.948303 ], [ 179.116934, 30.959469 ], [ 179.131404, 30.97057 ], [ 179.145941, 30.981607 ], [ 179.160546, 30.99258 ], [ 179.175217, 31.003489 ], [ 179.189955, 31.014332 ], [ 179.204758, 31.025111 ], [ 179.219628, 31.035824 ], [ 179.234562, 31.046471 ], [ 179.249561, 31.057052 ], [ 179.264625, 31.067566 ], [ 179.276484, 31.075766 ], [ 179.279972, 31.078165 ], [ 179.295164, 31.088546 ], [ 179.310419, 31.09886 ], [ 179.325737, 31.109106 ], [ 179.341117, 31.119285 ], [ 179.356559, 31.129395 ], [ 179.372064, 31.139438 ], [ 179.387629, 31.149411 ], [ 179.403256, 31.159316 ], [ 179.418943, 31.169152 ], [ 179.43469, 31.178918 ], [ 179.450497, 31.188614 ], [ 179.466363, 31.198241 ], [ 179.482288, 31.207798 ], [ 179.498272, 31.217284 ], [ 179.514314, 31.226699 ], [ 179.530413, 31.236043 ], [ 179.54657, 31.245317 ], [ 179.562783, 31.254518 ], [ 179.579053, 31.263648 ], [ 179.587165, 31.268162 ], [ 179.601537, 31.27613 ], [ 179.617919, 31.285116 ], [ 179.634356, 31.29403 ], [ 179.650847, 31.30287 ], [ 179.667393, 31.311638 ], [ 179.683993, 31.320333 ], [ 179.700646, 31.328954 ], [ 179.717353, 31.337501 ], [ 179.734111, 31.345975 ], [ 179.750922, 31.354375 ], [ 179.76416, 31.360919 ], [ 179.777067, 31.367282 ], [ 179.793981, 31.375533 ], [ 179.810946, 31.383709 ], [ 179.827961, 31.39181 ], [ 179.845027, 31.399835 ], [ 179.862141, 31.407785 ], [ 179.879304, 31.41566 ], [ 179.896516, 31.423459 ], [ 179.913776, 31.431181 ], [ 179.931084, 31.438827 ], [ 179.948438, 31.446397 ], [ 179.965839, 31.45389 ], [ 179.983287, 31.461306 ], [ 180.0, 31.468318 ], [ 180.0, 25.389755 ] ] ] ] } }
]
}
